{
  "type": "FeatureCollection",
  "name": "constraints",
  "features": [
    {
      "type": "Feature",
      "id": "CONST-RAIL",
      "properties": {
        "id": "CONST-RAIL",
        "layer": "HERITAGE_PROTECTION",
        "source_type": "agent_inferred_from_public_data",
        "confidence": "medium",
        "geometry_role": "provisional_constraint",
        "name_zh": "京张铁路遗址保护示意线（临时）",
        "usage_note": "京张铁路遗址保护为概念示意，非法定文保边界；待官方文保数据补齐。"
      },
      "geometry": {
        "type": "LineString",
        "coordinates": [
          [
            116.34727714285714,
            39.939
          ],
          [
            116.34727714285714,
            40.0265
          ]
        ]
      }
    }
  ]
}
