{
 "type": "FeatureCollection",
 "name": "key_areas",
 "features": [
  {
   "type": "Feature",
   "id": "KEY-001",
   "properties": {
    "id": "KEY-001",
    "layer": "KEY_AREA",
    "parent_scope_id": "key_detailed_design_area",
    "area_id": "zhongzhiyuan_ai_acceleration_area",
    "name_zh": "众智园AI自主创新加速区",
    "name_en": "Zhongzhiyuan AI Autonomy Acceleration Area",
    "role_zh": "AI全栈自主与硬科技孵化",
    "source_type": "agent_inferred_from_public_data",
    "confidence": "medium",
    "geometry_role": "provisional_constraint",
    "official_boundary": false,
    "boundary_precision": "provisional_rough",
    "announced_area_sqm": 1921000,
    "area_sqm_calculated": 1929201.9,
    "source_id": "DATA-SRC-PROVISIONAL-BOUNDARIES-20260605",
    "derived_from_source_ids": [
     "DATA-SRC-OFFICIAL-ANNOUNCEMENT-20260509"
    ],
    "usage_note": "provisional 临时范围，矩形边不代表地块或道路红线；正式面积以官方公告为准。"
   },
   "geometry": {
    "type": "Polygon",
    "coordinates": [
     [
      [
       116.343,
       40.0075
      ],
      [
       116.354,
       40.0075
      ],
      [
       116.354,
       40.026
      ],
      [
       116.343,
       40.026
      ],
      [
       116.343,
       40.0075
      ]
     ]
    ]
   }
  },
  {
   "type": "Feature",
   "id": "KEY-002",
   "properties": {
    "id": "KEY-002",
    "layer": "KEY_AREA",
    "parent_scope_id": "key_detailed_design_area",
    "area_id": "beijing_ai_origin_community",
    "name_zh": "北京AI原点社区",
    "name_en": "Beijing AI Origin Community",
    "role_zh": "世界级AI创新生态与人才社区",
    "source_type": "agent_inferred_from_public_data",
    "confidence": "medium",
    "geometry_role": "provisional_constraint",
    "official_boundary": false,
    "boundary_precision": "provisional_rough",
    "announced_area_sqm": 1043000,
    "area_sqm_calculated": 1043236.9,
    "source_id": "DATA-SRC-PROVISIONAL-BOUNDARIES-20260605",
    "derived_from_source_ids": [
     "DATA-SRC-OFFICIAL-ANNOUNCEMENT-20260509"
    ],
    "usage_note": "provisional 临时范围，矩形边不代表地块或道路红线；正式面积以官方公告为准。"
   },
   "geometry": {
    "type": "Polygon",
    "coordinates": [
     [
      [
       116.342,
       39.9835
      ],
      [
       116.353,
       39.9835
      ],
      [
       116.353,
       39.9935
      ],
      [
       116.342,
       39.9935
      ],
      [
       116.342,
       39.9835
      ]
     ]
    ]
   }
  },
  {
   "type": "Feature",
   "id": "KEY-003",
   "properties": {
    "id": "KEY-003",
    "layer": "KEY_AREA",
    "parent_scope_id": "key_detailed_design_area",
    "area_id": "dazhongsi_ai_industry_cluster",
    "name_zh": "大钟寺AI产业聚集区",
    "name_en": "Dazhongsi AI Industry Cluster",
    "role_zh": "智能原生消费与商务集聚",
    "source_type": "agent_inferred_from_public_data",
    "confidence": "medium",
    "geometry_role": "provisional_constraint",
    "official_boundary": false,
    "boundary_precision": "provisional_rough",
    "announced_area_sqm": 720000,
    "area_sqm_calculated": 720454.2,
    "source_id": "DATA-SRC-PROVISIONAL-BOUNDARIES-20260605",
    "derived_from_source_ids": [
     "DATA-SRC-OFFICIAL-ANNOUNCEMENT-20260509"
    ],
    "usage_note": "provisional 临时范围，矩形边不代表地块或道路红线；正式面积以官方公告为准。"
   },
   "geometry": {
    "type": "Polygon",
    "coordinates": [
     [
      [
       116.342,
       39.944
      ],
      [
       116.355,
       39.944
      ],
      [
       116.355,
       39.94984
      ],
      [
       116.342,
       39.94984
      ],
      [
       116.342,
       39.944
      ]
     ]
    ]
   }
  }
 ]
}