{
 "type": "FeatureCollection",
 "name": "site_boundary",
 "features": [
  {
   "type": "Feature",
   "id": "SITE-001",
   "properties": {
    "id": "SITE-001",
    "layer": "SITE_BOUNDARY",
    "scope_id": "overall_design_area",
    "name_zh": "总体设计范围（provisional 临时替代边界）",
    "name_en": "Overall Design Area (provisional)",
    "source_type": "agent_inferred_from_public_data",
    "confidence": "medium",
    "geometry_role": "provisional_constraint",
    "official_boundary": false,
    "boundary_precision": "provisional_rough",
    "source_id": "DATA-SRC-PROVISIONAL-BOUNDARIES-20260605",
    "derived_from_source_ids": [
     "DATA-SRC-OFFICIAL-ANNOUNCEMENT-20260509"
    ],
    "area_sqm_calculated": 11412825.4,
    "usage_note": "仅用于 AI agent 生成、展示与临时自检；非官方红线，精确面积以正式附件为准；替换 official polygon 后需重算。"
   },
   "geometry": {
    "type": "Polygon",
    "coordinates": [
     [
      [
       116.3407,
       39.939
      ],
      [
       116.3553,
       39.939
      ],
      [
       116.3553,
       39.965
      ],
      [
       116.3533,
       39.99
      ],
      [
       116.3553,
       40.0265
      ],
      [
       116.3427,
       40.0265
      ],
      [
       116.3417,
       40.006
      ],
      [
       116.3397,
       39.975
      ],
      [
       116.3407,
       39.939
      ]
     ]
    ]
   }
  }
 ]
}