{"type": "FeatureCollection", "features": [{"type": "Feature", "id": "LU-000-000-0", "properties": {"id": "LU-000-000-0", "layer": "BUILDING_FOOTPRINT", "source_type": "agent_generated_design", "confidence": "low", "geometry_role": "design_proposal", "building_type": "retail", "land_use_code": "0901"}, "geometry": {"type": "Polygon", "coordinates": [[[116.34246248747328, 39.94080119082068], [116.34247696840283, 39.9392882884752], [116.34106647298546, 39.93928821265251], [116.34102470665971, 39.9407930275573], [116.34246248747328, 39.94080119082068]]]}}, {"type": "Feature", "id": "LU-000-003-0", "properties": {"id": "LU-000-003-0", "layer": "BUILDING_FOOTPRINT", "source_type": "agent_generated_design", "confidence": "low", "geometry_role": "design_proposal", "building_type": "residential", "land_use_code": "0701"}, "geometry": {"type": "Polygon", "coordinates": [[[116.3424004116947, 39.9472852888644], [116.34241558763091, 39.94570028779955], [116.3408887297978, 39.94569161732122], [116.34084473210379, 39.9472764542351], [116.3424004116947, 39.9472852888644]]]}}, {"type": "Feature", "id": "LU-000-004-0", "properties": {"id": "LU-000-004-0", "layer": "BUILDING_FOOTPRINT", "source_type": "agent_generated_design", "confidence": "low", "geometry_role": "design_proposal", "building_type": "cultural", "land_use_code": "0803"}, "geometry": {"type": "Polygon", "coordinates": [[[116.34237971529953, 39.94944665324462], [116.34239489287451, 39.94786165277903], [116.34082873231435, 39.94785275845214], [116.34078473116641, 39.94943759473205], [116.34237971529953, 39.94944665324462]]]}}, {"type": "Feature", "id": "LU-000-006-0", "properties": {"id": "LU-000-006-0", "layer": "BUILDING_FOOTPRINT", "source_type": "agent_generated_design", "confidence": "low", "geometry_role": "design_proposal", "building_type": "residential", "land_use_code": "0701"}, "geometry": {"type": "Polygon", "coordinates": [[[116.34233831580408, 39.95376937955344], [116.34235349665724, 39.952184380286425], [116.34070872321678, 39.952175038120444], [116.34066471515948, 39.953759873132356], [116.34233831580408, 39.95376937955344]]]}}, {"type": "Feature", "id": "LU-000-007-0", "properties": {"id": "LU-000-007-0", "layer": "BUILDING_FOOTPRINT", "source_type": "agent_generated_design", "confidence": "low", "geometry_role": "design_proposal", "building_type": "retail", "land_use_code": "0901"}, "geometry": {"type": "Polygon", "coordinates": [[[116.3423176127033, 39.95593074148203], [116.34233279519582, 39.9543457428143], [116.3406487116013, 39.954336176657776], [116.34060470008862, 39.955921011035684], [116.3423176127033, 39.95593074148203]]]}}, {"type": "Feature", "id": "LU-000-008-0", "properties": {"id": "LU-000-008-0", "layer": "BUILDING_FOOTPRINT", "source_type": "agent_generated_design", "confidence": "low", "geometry_role": "design_proposal", "building_type": "residential", "land_use_code": "0701"}, "geometry": {"type": "Polygon", "coordinates": [[[116.34229690736676, 39.95809210259337], [116.34231209149885, 39.95650710452495], [116.34058869527385, 39.956497314330555], [116.34054468030523, 39.95808214807443], [116.34229690736676, 39.95809210259337]]]}}, {"type": "Feature", "id": "LU-000-009-0", "properties": {"id": "LU-000-009-0", "layer": "BUILDING_FOOTPRINT", "source_type": "agent_generated_design", "confidence": "low", "geometry_role": "design_proposal", "building_type": "cultural", "land_use_code": "0803"}, "geometry": {"type": "Polygon", "coordinates": [[[116.34227619979421, 39.96025346288746], [116.34229138556607, 39.95866846541837], [116.3405286742337, 39.95865845113874], [116.3404846558087, 39.96024328424858], [116.34227619979421, 39.96025346288746]]]}}, {"type": "Feature", "id": "LU-000-012-0", "properties": {"id": "LU-000-012-0", "layer": "BUILDING_FOOTPRINT", "source_type": "agent_generated_design", "confidence": "low", "geometry_role": "design_proposal", "building_type": "residential", "land_use_code": "0701"}, "geometry": {"type": "Polygon", "coordinates": [[[116.34221406365775, 39.96673753886616], [116.3422292543501, 39.96515254319506], [116.34034858283046, 39.965141856375645], [116.34030455403334, 39.9667266875833], [116.34221406365775, 39.96673753886616]]]}}, {"type": "Feature", "id": "LU-000-013-0", "properties": {"id": "LU-000-013-0", "layer": "BUILDING_FOOTPRINT", "source_type": "agent_generated_design", "confidence": "low", "geometry_role": "design_proposal", "building_type": "community_service", "land_use_code": "0805"}, "geometry": {"type": "Polygon", "coordinates": [[[116.34219334713845, 39.96889889589115], [116.34220853947136, 39.967313900819406], [116.34028854293288, 39.96730298972533], [116.34024451067741, 39.968887820298875], [116.34219334713845, 39.96889889589115]]]}}, {"type": "Feature", "id": "LU-000-014-0", "properties": {"id": "LU-000-014-0", "layer": "BUILDING_FOOTPRINT", "source_type": "agent_generated_design", "confidence": "low", "geometry_role": "design_proposal", "building_type": "community_service", "land_use_code": "0805"}, "geometry": {"type": "Polygon", "coordinates": [[[116.34217262838179, 39.971060252098845], [116.34218782235546, 39.96947525762645], [116.34022849831928, 39.96946412221034], [116.34018446260494, 39.97104895214979], [116.34217262838179, 39.971060252098845]]]}}, {"type": "Feature", "id": "LU-000-020-0", "properties": {"id": "LU-000-020-0", "layer": "BUILDING_FOOTPRINT", "source_type": "agent_generated_design", "confidence": "low", "geometry_role": "design_proposal", "building_type": "education", "land_use_code": "0804"}, "geometry": {"type": "Polygon", "coordinates": [[[116.34204826884203, 39.984028372180894], [116.34206347266439, 39.98244338130485], [116.34055460107139, 39.982434806580976], [116.34065689080195, 39.98402046560461], [116.34204826884203, 39.984028372180894]]]}}, {"type": "Feature", "id": "LU-000-021-0", "properties": {"id": "LU-000-021-0", "layer": "BUILDING_FOOTPRINT", "source_type": "agent_generated_design", "confidence": "low", "geometry_role": "design_proposal", "building_type": "residential", "land_use_code": "0701"}, "geometry": {"type": "Polygon", "coordinates": [[[116.34202753441625, 39.98618972266712], [116.34204273988078, 39.98460473239047], [116.34069408811585, 39.98459706876591], [116.3407963836121, 39.98618272712938], [116.34202753441625, 39.98618972266712]]]}}, {"type": "Feature", "id": "LU-000-022-0", "properties": {"id": "LU-000-022-0", "layer": "BUILDING_FOOTPRINT", "source_type": "agent_generated_design", "confidence": "low", "geometry_role": "design_proposal", "building_type": "community_service", "land_use_code": "0805"}, "geometry": {"type": "Polygon", "coordinates": [[[116.34200679775098, 39.98835107233594], [116.34202200485782, 39.98676608265873], [116.3408335830228, 39.986759330050624], [116.3409358842857, 39.988344987753905], [116.34200679775098, 39.98835107233594]]]}}, {"type": "Feature", "id": "LU-000-023-0", "properties": {"id": "LU-000-023-0", "layer": "BUILDING_FOOTPRINT", "source_type": "agent_generated_design", "confidence": "low", "geometry_role": "design_proposal", "building_type": "residential", "land_use_code": "0701"}, "geometry": {"type": "Polygon", "coordinates": [[[116.34198605884589, 39.99051242118737], [116.3420012675953, 39.988927432109584], [116.34097308579355, 39.988921590435055], [116.34107539282414, 39.99050724747811], [116.34198605884589, 39.99051242118737]]]}}, {"type": "Feature", "id": "LU-000-024-0", "properties": {"id": "LU-000-024-0", "layer": "BUILDING_FOOTPRINT", "source_type": "agent_generated_design", "confidence": "low", "geometry_role": "design_proposal", "building_type": "education", "land_use_code": "0804"}, "geometry": {"type": "Polygon", "coordinates": [[[116.34196531770074, 39.992673769221355], [116.34198052809289, 39.99108878074302], [116.34111259642953, 39.99108384991918], [116.34121490922878, 39.99266950630197], [116.34196531770074, 39.992673769221355]]]}}, {"type": "Feature", "id": "LU-000-025-0", "properties": {"id": "LU-000-025-0", "layer": "BUILDING_FOOTPRINT", "source_type": "agent_generated_design", "confidence": "low", "geometry_role": "design_proposal", "building_type": "community_service", "land_use_code": "0806"}, "geometry": {"type": "Polygon", "coordinates": [[[116.34194457431529, 39.994835116437905], [116.34195978635037, 39.99325012855904], [116.34125211493205, 39.99324610850294], [116.341354433501, 39.99483176422542], [116.34194457431529, 39.994835116437905]]]}}, {"type": "Feature", "id": "LU-000-026-0", "properties": {"id": "LU-000-026-0", "layer": "BUILDING_FOOTPRINT", "source_type": "agent_generated_design", "confidence": "low", "geometry_role": "design_proposal", "building_type": "community_service", "land_use_code": "0806"}, "geometry": {"type": "Polygon", "coordinates": [[[116.3419238286892, 39.99699646283704], [116.34193904236743, 39.99541147555761], [116.34139164130251, 39.99540836618626], [116.34149396564214, 39.99699402124842], [116.3419238286892, 39.99699646283704]]]}}, {"type": "Feature", "id": "LU-000-028-0", "properties": {"id": "LU-000-028-0", "layer": "BUILDING_FOOTPRINT", "source_type": "agent_generated_design", "confidence": "low", "geometry_role": "design_proposal", "building_type": "residential", "land_use_code": "0701"}, "geometry": {"type": "Polygon", "coordinates": [[[116.3418823307142, 40.00131915318289], [116.34189754767927, 39.99973416710241], [116.3416707176527, 39.999732878851475], [116.34177305353673, 40.00131853259283], [116.3418823307142, 40.00131915318289]]]}}, {"type": "Feature", "id": "LU-001-000-0", "properties": {"id": "LU-001-000-0", "layer": "BUILDING_FOOTPRINT", "source_type": "agent_generated_design", "confidence": "low", "geometry_role": "design_proposal", "building_type": "residential", "land_use_code": "0701"}, "geometry": {"type": "Polygon", "coordinates": [[[116.34321126031132, 39.94080543505403], [116.34527038643348, 39.94081708176368], [116.34528495602257, 39.9392883883348], [116.34322576500962, 39.93928832175435], [116.34321126031132, 39.94080543505403]]]}}, {"type": "Feature", "id": "LU-001-002-0", "properties": {"id": "LU-001-002-0", "layer": "BUILDING_FOOTPRINT", "source_type": "agent_generated_design", "confidence": "low", "geometry_role": "design_proposal", "building_type": "retail", "land_use_code": "0901"}, "geometry": {"type": "Polygon", "coordinates": [[[116.34318508282927, 39.943543166645576], [116.3431699258084, 39.9451281685467], [116.34522918149752, 39.945139817030025], [116.34524429100726, 39.94355481447852], [116.34318508282927, 39.943543166645576]]]}}, {"type": "Feature", "id": "LU-001-005-0", "properties": {"id": "LU-001-005-0", "layer": "BUILDING_FOOTPRINT", "source_type": "agent_generated_design", "confidence": "low", "geometry_role": "design_proposal", "building_type": "cultural", "land_use_code": "0803"}, "geometry": {"type": "Polygon", "coordinates": [[[116.34312306924609, 39.950027262553654], [116.34310790731448, 39.95161226265701], [116.34516735740645, 39.951623913801214], [116.34518247181154, 39.95003891304738], [116.34312306924609, 39.950027262553654]]]}}, {"type": "Feature", "id": "LU-001-006-0", "properties": {"id": "LU-001-006-0", "layer": "BUILDING_FOOTPRINT", "source_type": "agent_generated_design", "confidence": "low", "geometry_role": "design_proposal", "building_type": "cultural", "land_use_code": "0803"}, "geometry": {"type": "Polygon", "coordinates": [[[116.34310239358712, 39.952188626222], [116.34308723001818, 39.95377362572607], [116.34514674492512, 39.95378527775737], [116.3451618609624, 39.95220027760276], [116.34310239358712, 39.952188626222]]]}}, {"type": "Feature", "id": "LU-001-007-0", "properties": {"id": "LU-001-007-0", "layer": "BUILDING_FOOTPRINT", "source_type": "agent_generated_design", "confidence": "low", "geometry_role": "design_proposal", "building_type": "retail", "land_use_code": "0901"}, "geometry": {"type": "Polygon", "coordinates": [[[116.34308171569542, 39.954349989073144], [116.34306655048898, 39.95593498797794], [116.34512613021786, 39.95594664089637], [116.34514124788754, 39.95436164134099], [116.34308171569542, 39.954349989073144]]]}}, {"type": "Feature", "id": "LU-001-009-0", "properties": {"id": "LU-001-009-0", "layer": "BUILDING_FOOTPRINT", "source_type": "agent_generated_design", "confidence": "low", "geometry_role": "design_proposal", "building_type": "community_service", "land_use_code": "0806"}, "geometry": {"type": "Polygon", "coordinates": [[[116.34304035321273, 39.9586727123238], [116.34302518473068, 39.96025771003001], [116.3450848941245, 39.96026936472287], [116.34510001505947, 39.95868436636601], [116.34304035321273, 39.9586727123238]]]}}, {"type": "Feature", "id": "LU-001-010-0", "properties": {"id": "LU-001-010-0", "layer": "BUILDING_FOOTPRINT", "source_type": "agent_generated_design", "confidence": "low", "geometry_role": "design_proposal", "building_type": "community_service", "land_use_code": "0806"}, "geometry": {"type": "Polygon", "coordinates": [[[116.34301966862121, 39.9608340727233], [116.34300449850107, 39.96241906983019], [116.34506427273782, 39.962430725410336], [116.34507939530577, 39.96084572765276], [116.34301966862121, 39.9608340727233]]]}}, {"type": "Feature", "id": "LU-001-011-0", "properties": {"id": "LU-001-011-0", "layer": "BUILDING_FOOTPRINT", "source_type": "agent_generated_design", "confidence": "low", "geometry_role": "design_proposal", "building_type": "residential", "land_use_code": "0701"}, "geometry": {"type": "Polygon", "coordinates": [[[116.34299898179587, 39.96299543230554], [116.34298381003744, 39.96458042881313], [116.34504364912415, 39.96459208528063], [116.34505877332528, 39.96300708812232], [116.34299898179587, 39.96299543230554]]]}}, {"type": "Feature", "id": "LU-001-012-0", "properties": {"id": "LU-001-012-0", "layer": "BUILDING_FOOTPRINT", "source_type": "agent_generated_design", "confidence": "low", "geometry_role": "design_proposal", "building_type": "cultural", "land_use_code": "0803"}, "geometry": {"type": "Polygon", "coordinates": [[[116.34297829273646, 39.96515679107054], [116.34296311933953, 39.966741786978794], [116.34502302328319, 39.96675344433371], [116.34503814911767, 39.96516844777467], [116.34297829273646, 39.96515679107054]]]}}, {"type": "Feature", "id": "LU-001-013-0", "properties": {"id": "LU-001-013-0", "layer": "BUILDING_FOOTPRINT", "source_type": "agent_generated_design", "confidence": "low", "geometry_role": "design_proposal", "building_type": "residential", "land_use_code": "0701"}, "geometry": {"type": "Polygon", "coordinates": [[[116.34295760144272, 39.96731814901829], [116.34294242640709, 39.968903144327186], [116.3450023952147, 39.96891480256956], [116.34501752268274, 39.96732980660984], [116.34295760144272, 39.96731814901829]]]}}, {"type": "Feature", "id": "LU-001-018-0", "properties": {"id": "LU-001-018-0", "layer": "BUILDING_FOOTPRINT", "source_type": "agent_generated_design", "confidence": "low", "geometry_role": "design_proposal", "building_type": "community_service", "land_use_code": "0806"}, "geometry": {"type": "Polygon", "coordinates": [[[116.34285411144926, 39.97812492649756], [116.34283892821719, 39.97970991880966], [116.34489922144971, 39.97972158149017], [116.34491435708848, 39.97813658852705], [116.34285411144926, 39.97812492649756]]]}}, {"type": "Feature", "id": "LU-001-019-0", "properties": {"id": "LU-001-019-0", "layer": "BUILDING_FOOTPRINT", "source_type": "agent_generated_design", "confidence": "low", "geometry_role": "design_proposal", "building_type": "residential", "land_use_code": "0701"}, "geometry": {"type": "Polygon", "coordinates": [[[116.34283340674375, 39.98028627954145], [116.34281822187182, 39.98187127125417], [116.34487858001032, 39.98188293482248], [116.34489371728382, 39.9802979424587], [116.34283340674375, 39.98028627954145]]]}}, {"type": "Feature", "id": "LU-001-021-0", "properties": {"id": "LU-001-021-0", "layer": "BUILDING_FOOTPRINT", "source_type": "agent_generated_design", "confidence": "low", "geometry_role": "design_proposal", "building_type": "community_service", "land_use_code": "0806"}, "geometry": {"type": "Polygon", "coordinates": [[[116.34279199062377, 39.984608983177196], [116.34277680247148, 39.98619397369112], [116.344837290443, 39.98620563903518], [116.34485243098659, 39.984620647870116], [116.34279199062377, 39.984608983177196]]]}}, {"type": "Feature", "id": "LU-001-022-0", "properties": {"id": "LU-001-022-0", "layer": "BUILDING_FOOTPRINT", "source_type": "agent_generated_design", "confidence": "low", "geometry_role": "design_proposal", "building_type": "retail", "land_use_code": "0901"}, "geometry": {"type": "Polygon", "coordinates": [[[116.34277127920873, 39.986770333769016], [116.34275608941597, 39.988355323683535], [116.34481664231454, 39.98836698991554], [116.34483178449346, 39.986781999349866], [116.34277127920873, 39.986770333769016]]]}}, {"type": "Feature", "id": "LU-001-032-0", "properties": {"id": "LU-001-032-0", "layer": "BUILDING_FOOTPRINT", "source_type": "agent_generated_design", "confidence": "low", "geometry_role": "design_proposal", "building_type": "cultural", "land_use_code": "0803"}, "geometry": {"type": "Polygon", "coordinates": [[[116.3425640419766, 40.00838379472934], [116.34254883576824, 40.00996877864929], [116.34461003832286, 40.00998045376393], [116.34462519686593, 40.00839546919241], [116.3425640419766, 40.00838379472934]]]}}, {"type": "Feature", "id": "LU-001-033-0", "properties": {"id": "LU-001-033-0", "layer": "BUILDING_FOOTPRINT", "source_type": "agent_generated_design", "confidence": "low", "geometry_role": "design_proposal", "building_type": "cultural", "land_use_code": "0803"}, "geometry": {"type": "Polygon", "coordinates": [[[116.34254330593927, 40.01054513632934], [116.34252809808824, 40.01213011964975], [116.34458936564707, 40.01214179565296], [116.34460452582765, 40.010556811680935], [116.34254330593927, 40.01054513632934]]]}}, {"type": "Feature", "id": "LU-001-034-0", "properties": {"id": "LU-001-034-0", "layer": "BUILDING_FOOTPRINT", "source_type": "agent_generated_design", "confidence": "low", "geometry_role": "design_proposal", "building_type": "cultural", "land_use_code": "0803"}, "geometry": {"type": "Polygon", "coordinates": [[[116.3425225676619, 40.01270647711182], [116.34250735816805, 40.01429145983272], [116.3445686907381, 40.014303136724564], [116.34458385255638, 40.01271815335198], [116.3425225676619, 40.01270647711182]]]}}, {"type": "Feature", "id": "LU-001-037-0", "properties": {"id": "LU-001-037-0", "layer": "BUILDING_FOOTPRINT", "source_type": "agent_generated_design", "confidence": "low", "geometry_role": "design_proposal", "building_type": "residential", "land_use_code": "0701"}, "geometry": {"type": "Polygon", "coordinates": [[[116.34450665260931, 40.020787155034434], [116.34452181934188, 40.019202173460336], [116.34271853898575, 40.019191959341846], [116.34279589674006, 40.02077746535871], [116.34450665260931, 40.020787155034434]]]}}, {"type": "Feature", "id": "LU-001-038-0", "properties": {"id": "LU-001-038-0", "layer": "BUILDING_FOOTPRINT", "source_type": "agent_generated_design", "confidence": "low", "geometry_role": "design_proposal", "building_type": "residential", "land_use_code": "0701"}, "geometry": {"type": "Polygon", "coordinates": [[[116.34448596876486, 40.02294849283604], [116.34450113713592, 40.02136351186147], [116.34282402759631, 40.02135401288842], [116.34290138955173, 40.02293951828482], [116.34448596876486, 40.02294849283604]]]}}, {"type": "Feature", "id": "LU-001-040-0", "properties": {"id": "LU-001-040-0", "layer": "BUILDING_FOOTPRINT", "source_type": "agent_generated_design", "confidence": "low", "geometry_role": "design_proposal", "building_type": "retail", "land_use_code": "0901"}, "geometry": {"type": "Polygon", "coordinates": [[[116.34445976602073, 40.02568618621118], [116.34303502200527, 40.02567811744326], [116.34306106623089, 40.02621183316533], [116.34445473398499, 40.02621189616763], [116.34445976602073, 40.02568618621118]]]}}, {"type": "Feature", "id": "LU-002-000-0", "properties": {"id": "LU-002-000-0", "layer": "BUILDING_FOOTPRINT", "source_type": "agent_generated_design", "confidence": "low", "geometry_role": "design_proposal", "building_type": "community_service", "land_use_code": "0805"}, "geometry": {"type": "Polygon", "coordinates": [[[116.34601915986559, 39.94082130786463], [116.348078287618, 39.940832904710106], [116.34809294457577, 39.93928842018381], [116.34603375287921, 39.93928840347782], [116.34601915986559, 39.94082130786463]]]}}, {"type": "Feature", "id": "LU-002-002-0", "properties": {"id": "LU-002-002-0", "layer": "BUILDING_FOOTPRINT", "source_type": "agent_generated_design", "confidence": "low", "geometry_role": "design_proposal", "building_type": "community_service", "land_use_code": "0806"}, "geometry": {"type": "Polygon", "coordinates": [[[116.34599309427787, 39.943559040987076], [116.34597800204496, 39.945144043774555], [116.34803725936467, 39.945155642386084], [116.34805230408634, 39.94357063895102], [116.34599309427787, 39.943559040987076]]]}}, {"type": "Feature", "id": "LU-002-003-0", "properties": {"id": "LU-002-003-0", "layer": "BUILDING_FOOTPRINT", "source_type": "agent_generated_design", "confidence": "low", "geometry_role": "design_proposal", "building_type": "community_service", "land_use_code": "0806"}, "geometry": {"type": "Polygon", "coordinates": [[[116.34597251366395, 39.9457204083156], [116.3459574198013, 39.94730541050389], [116.3480167419152, 39.94731700999854], [116.34803178826144, 39.945732007162626], [116.34597251366395, 39.9457204083156]]]}}, {"type": "Feature", "id": "LU-002-004-0", "properties": {"id": "LU-002-004-0", "layer": "BUILDING_FOOTPRINT", "source_type": "agent_generated_design", "confidence": "low", "geometry_role": "design_proposal", "building_type": "community_service", "land_use_code": "0806"}, "geometry": {"type": "Polygon", "coordinates": [[[116.34595193082762, 39.947881774827046], [116.34593683533505, 39.94946677641614], [116.34799622225012, 39.949478376793955], [116.34801127022116, 39.94789337455721], [116.34595193082762, 39.947881774827046]]]}}, {"type": "Feature", "id": "LU-002-005-0", "properties": {"id": "LU-002-005-0", "layer": "BUILDING_FOOTPRINT", "source_type": "agent_generated_design", "confidence": "low", "geometry_role": "design_proposal", "building_type": "residential", "land_use_code": "0701"}, "geometry": {"type": "Polygon", "coordinates": [[[116.34593134576863, 39.9500431405214], [116.34591624864593, 39.95162814151128], [116.34797570036916, 39.95163974277232], [116.3479907499652, 39.95005474113475], [116.34593134576863, 39.9500431405214]]]}}, {"type": "Feature", "id": "LU-002-006-0", "properties": {"id": "LU-002-006-0", "layer": "BUILDING_FOOTPRINT", "source_type": "agent_generated_design", "confidence": "low", "geometry_role": "design_proposal", "building_type": "residential", "land_use_code": "0701"}, "geometry": {"type": "Polygon", "coordinates": [[[116.34591075848675, 39.952204505398655], [116.34589565973374, 39.9537895057893], [116.34795517627211, 39.95380110793363], [116.34797022749332, 39.95221610689523], [116.34591075848675, 39.952204505398655]]]}}, {"type": "Feature", "id": "LU-002-007-0", "properties": {"id": "LU-002-007-0", "layer": "BUILDING_FOOTPRINT", "source_type": "agent_generated_design", "confidence": "low", "geometry_role": "design_proposal", "building_type": "residential", "land_use_code": "0701"}, "geometry": {"type": "Polygon", "coordinates": [[[116.34589016898164, 39.95436586945876], [116.34587506859815, 39.9559508692502], [116.34793464995865, 39.955962472277854], [116.34794970280522, 39.95437747183865], [116.34589016898164, 39.95436586945876]]]}}, {"type": "Feature", "id": "LU-002-008-0", "properties": {"id": "LU-002-008-0", "layer": "BUILDING_FOOTPRINT", "source_type": "agent_generated_design", "confidence": "low", "geometry_role": "design_proposal", "building_type": "residential", "land_use_code": "0701"}, "geometry": {"type": "Polygon", "coordinates": [[[116.34586957725311, 39.95652723270177], [116.34585447523887, 39.95811223189396], [116.34791412142853, 39.95812383580501], [116.3479291759007, 39.95653883596499], [116.34586957725311, 39.95652723270177]]]}}, {"type": "Feature", "id": "LU-002-010-0", "properties": {"id": "LU-002-010-0", "layer": "BUILDING_FOOTPRINT", "source_type": "agent_generated_design", "confidence": "low", "geometry_role": "design_proposal", "building_type": "cultural", "land_use_code": "0803"}, "geometry": {"type": "Polygon", "coordinates": [[[116.34582838712456, 39.960849956736325], [116.34581328184831, 39.96243495473], [116.34787305771727, 39.96244656040798], [116.34788811544117, 39.9608615617664], [116.34582838712456, 39.960849956736325]]]}}, {"type": "Feature", "id": "LU-002-012-0", "properties": {"id": "LU-002-012-0", "layer": "BUILDING_FOOTPRINT", "source_type": "agent_generated_design", "confidence": "low", "geometry_role": "design_proposal", "building_type": "cultural", "land_use_code": "0803"}, "geometry": {"type": "Polygon", "coordinates": [[[116.34578718809894, 39.965172677502196], [116.34577207955991, 39.966757674297355], [116.34783198513617, 39.96676928174251], [116.34784704611259, 39.965184284299355], [116.34578718809894, 39.965172677502196]]]}}, {"type": "Feature", "id": "LU-002-013-0", "properties": {"id": "LU-002-013-0", "layer": "BUILDING_FOOTPRINT", "source_type": "agent_generated_design", "confidence": "low", "geometry_role": "design_proposal", "building_type": "retail", "land_use_code": "0901"}, "geometry": {"type": "Polygon", "coordinates": [[[116.34576658524905, 39.967334036659366], [116.34575147507834, 39.968919032855226], [116.34781144551876, 39.968930641184045], [116.34782650812174, 39.96734564434014], [116.34576658524905, 39.967334036659366]]]}}, {"type": "Feature", "id": "LU-002-014-0", "properties": {"id": "LU-002-014-0", "layer": "BUILDING_FOOTPRINT", "source_type": "agent_generated_design", "confidence": "low", "geometry_role": "design_proposal", "building_type": "community_service", "land_use_code": "0806"}, "geometry": {"type": "Polygon", "coordinates": [[[116.34574598017412, 39.96949539499933], [116.34573086837153, 39.9710803905959], [116.34779090368309, 39.971091999808436], [116.34780596791282, 39.969507003563784], [116.34574598017412, 39.96949539499933]]]}}, {"type": "Feature", "id": "LU-002-015-0", "properties": {"id": "LU-002-015-0", "layer": "BUILDING_FOOTPRINT", "source_type": "agent_generated_design", "confidence": "low", "geometry_role": "design_proposal", "building_type": "retail", "land_use_code": "0901"}, "geometry": {"type": "Polygon", "coordinates": [[[116.34572537287383, 39.97165675252207], [116.34571025943917, 39.97324174751936], [116.34777035962891, 39.97325335761566], [116.34778542548558, 39.97166836197026], [116.34572537287383, 39.97165675252207]]]}}, {"type": "Feature", "id": "LU-002-016-0", "properties": {"id": "LU-002-016-0", "layer": "BUILDING_FOOTPRINT", "source_type": "agent_generated_design", "confidence": "low", "geometry_role": "design_proposal", "building_type": "retail", "land_use_code": "0901"}, "geometry": {"type": "Polygon", "coordinates": [[[116.34570476334795, 39.97381810922759], [116.345689648281, 39.975403103625574], [116.34774981335592, 39.975414714605705], [116.34776488083973, 39.97382971955957], [116.34570476334795, 39.97381810922759]]]}}, {"type": "Feature", "id": "LU-002-018-0", "properties": {"id": "LU-002-018-0", "layer": "BUILDING_FOOTPRINT", "source_type": "agent_generated_design", "confidence": "low", "geometry_role": "design_proposal", "building_type": "residential", "land_use_code": "0701"}, "geometry": {"type": "Polygon", "coordinates": [[[116.34566353761834, 39.978140820186916], [116.34564841928622, 39.97972581338627], [116.3477087141525, 39.97973742613421], [116.34772378489117, 39.97815243228664], [116.34566353761834, 39.978140820186916]]]}}, {"type": "Feature", "id": "LU-002-019-0", "properties": {"id": "LU-002-019-0", "layer": "BUILDING_FOOTPRINT", "source_type": "agent_generated_design", "confidence": "low", "geometry_role": "design_proposal", "building_type": "residential", "land_use_code": "0701"}, "geometry": {"type": "Polygon", "coordinates": [[[116.34564292141403, 39.98030217444069], [116.34562780144904, 39.98188716704071], [116.34768816122151, 39.98189878067265], [116.34770323358794, 39.980313787424365], [116.34564292141403, 39.98030217444069]]]}}, {"type": "Feature", "id": "LU-002-026-0", "properties": {"id": "LU-002-026-0", "layer": "BUILDING_FOOTPRINT", "source_type": "agent_generated_design", "confidence": "low", "geometry_role": "design_proposal", "building_type": "residential", "land_use_code": "0701"}, "geometry": {"type": "Polygon", "coordinates": [[[116.34549854562192, 39.9954316313329], [116.3454834142213, 39.99701661973736], [116.34754422853347, 39.99702823955879], [116.34755931229948, 39.995443250505765], [116.34549854562192, 39.9954316313329]]]}}, {"type": "Feature", "id": "LU-002-029-0", "properties": {"id": "LU-002-029-0", "layer": "BUILDING_FOOTPRINT", "source_type": "agent_generated_design", "confidence": "low", "geometry_role": "design_proposal", "building_type": "community_service", "land_use_code": "0806"}, "geometry": {"type": "Polygon", "coordinates": [[[116.34543663685945, 40.00191567202664], [116.3454215005549, 40.00350065863287], [116.34748250977499, 40.003512281107774], [116.34749759842953, 40.00192729385286], [116.34543663685945, 40.00191567202664]]]}}, {"type": "Feature", "id": "LU-002-031-0", "properties": {"id": "LU-002-031-0", "layer": "BUILDING_FOOTPRINT", "source_type": "agent_generated_design", "confidence": "low", "geometry_role": "design_proposal", "building_type": "residential", "land_use_code": "0701"}, "geometry": {"type": "Polygon", "coordinates": [[[116.34539535320475, 40.00623836173555], [116.34538021362997, 40.00782334714294], [116.34744135282374, 40.00783497138708], [116.34745644473824, 40.006249985330946], [116.34539535320475, 40.00623836173555]]]}}, {"type": "Feature", "id": "LU-002-032-0", "properties": {"id": "LU-002-032-0", "layer": "BUILDING_FOOTPRINT", "source_type": "agent_generated_design", "confidence": "low", "geometry_role": "design_proposal", "building_type": "cultural", "land_use_code": "0803"}, "geometry": {"type": "Polygon", "coordinates": [[[116.34537470803268, 40.0083997053639], [116.34535956682247, 40.009984690171834], [116.34742077101362, 40.00999631530069], [116.34743586455842, 40.00841132984395], [116.34537470803268, 40.0083997053639]]]}}, {"type": "Feature", "id": "LU-002-036-0", "properties": {"id": "LU-002-036-0", "layer": "BUILDING_FOOTPRINT", "source_type": "agent_generated_design", "confidence": "low", "geometry_role": "design_proposal", "building_type": "retail", "land_use_code": "0901"}, "geometry": {"type": "Polygon", "coordinates": [[[116.34529210504003, 40.01704507170294], [116.3452769572861, 40.01863005411303], [116.347338421537, 40.018641682781265], [116.34735352160489, 40.01705669972222], [116.34529210504003, 40.01704507170294]]]}}, {"type": "Feature", "id": "LU-002-038-0", "properties": {"id": "LU-002-038-0", "layer": "BUILDING_FOOTPRINT", "source_type": "agent_generated_design", "confidence": "low", "geometry_role": "design_proposal", "building_type": "cultural", "land_use_code": "0803"}, "geometry": {"type": "Polygon", "coordinates": [[[116.3452507901573, 40.0213677499677], [116.34523563913032, 40.022952731178805], [116.34729723345323, 40.02296436161708], [116.34731233678387, 40.02137937975693], [116.3452507901573, 40.0213677499677]]]}}, {"type": "Feature", "id": "LU-003-002-0", "properties": {"id": "LU-003-002-0", "layer": "BUILDING_FOOTPRINT", "source_type": "agent_generated_design", "confidence": "low", "geometry_role": "design_proposal", "building_type": "residential", "land_use_code": "0701"}, "geometry": {"type": "Polygon", "coordinates": [[[116.34880110794862, 39.94357484732536], [116.3487860805038, 39.945159850995395], [116.35084533944719, 39.94517139973504], [116.35086031938057, 39.94358639542018], [116.34880110794862, 39.94357484732536]]]}}, {"type": "Feature", "id": "LU-003-005-0", "properties": {"id": "LU-003-005-0", "layer": "BUILDING_FOOTPRINT", "source_type": "agent_generated_design", "confidence": "low", "geometry_role": "design_proposal", "building_type": "residential", "land_use_code": "0701"}, "geometry": {"type": "Polygon", "coordinates": [[[116.34873962451414, 39.95005895047042], [116.34872459220057, 39.95164395234301], [116.350784045548, 39.95165550372077], [116.35079903033477, 39.95007050120326], [116.34873962451414, 39.95005895047042]]]}}, {"type": "Feature", "id": "LU-003-006-0", "properties": {"id": "LU-003-006-0", "layer": "BUILDING_FOOTPRINT", "source_type": "agent_generated_design", "confidence": "low", "geometry_role": "design_proposal", "building_type": "cultural", "land_use_code": "0803"}, "geometry": {"type": "Polygon", "coordinates": [[[116.34871912560958, 39.95222031655139], [116.34870409167267, 39.95380531782482], [116.35076360983547, 39.95381687008205], [116.3507785962404, 39.952231868163665], [116.34871912560958, 39.95222031655139]]]}}, {"type": "Feature", "id": "LU-003-008-0", "properties": {"id": "LU-003-008-0", "layer": "BUILDING_FOOTPRINT", "source_type": "agent_generated_design", "confidence": "low", "geometry_role": "design_proposal", "building_type": "residential", "land_use_code": "0701"}, "geometry": {"type": "Polygon", "coordinates": [[[116.34867812115921, 39.95654304626218], [116.34866308397511, 39.95812804633727], [116.35072273178957, 39.95813960035363], [116.35073772143149, 39.95655459963351], [116.34867812115921, 39.95654304626218]]]}}, {"type": "Feature", "id": "LU-003-009-0", "properties": {"id": "LU-003-009-0", "layer": "BUILDING_FOOTPRINT", "source_type": "agent_generated_design", "confidence": "low", "geometry_role": "design_proposal", "building_type": "cultural", "land_use_code": "0803"}, "geometry": {"type": "Polygon", "coordinates": [[[116.3486576156129, 39.95870440989199], [116.34864257680488, 39.96028940936787], [116.35070228945571, 39.96030096426388], [116.3507172807164, 39.95871596414292], [116.3486576156129, 39.95870440989199]]]}}, {"type": "Feature", "id": "LU-003-010-0", "properties": {"id": "LU-003-010-0", "layer": "BUILDING_FOOTPRINT", "source_type": "agent_generated_design", "confidence": "low", "geometry_role": "design_proposal", "building_type": "community_service", "land_use_code": "0806"}, "geometry": {"type": "Polygon", "coordinates": [[[116.34863710785214, 39.960865772704715], [116.34862206742001, 39.96245077158139], [116.35068184491418, 39.9624623273571], [116.35069683779382, 39.96087732783529], [116.34863710785214, 39.960865772704715]]]}}, {"type": "Feature", "id": "LU-003-012-0", "properties": {"id": "LU-003-012-0", "layer": "BUILDING_FOOTPRINT", "source_type": "agent_generated_design", "confidence": "low", "geometry_role": "design_proposal", "building_type": "cultural", "land_use_code": "0803"}, "geometry": {"type": "Polygon", "coordinates": [[[116.34859608568618, 39.96518849587886], [116.34858104200528, 39.966773493557135], [116.35064094920713, 39.9667850510924], [116.35065594532531, 39.965200052768935], [116.34859608568618, 39.96518849587886]]]}}, {"type": "Feature", "id": "LU-003-013-0", "properties": {"id": "LU-003-013-0", "layer": "BUILDING_FOOTPRINT", "source_type": "agent_generated_design", "confidence": "low", "geometry_role": "design_proposal", "building_type": "retail", "land_use_code": "0901"}, "geometry": {"type": "Polygon", "coordinates": [[[116.34857557128048, 39.967349856240276], [116.34856052597489, 39.96893485331931], [116.3506204980411, 39.968946411734436], [116.35063549577882, 39.96736141401018], [116.34857557128048, 39.967349856240276]]]}}, {"type": "Feature", "id": "LU-003-014-0", "properties": {"id": "LU-003-014-0", "layer": "BUILDING_FOOTPRINT", "source_type": "agent_generated_design", "confidence": "low", "geometry_role": "design_proposal", "building_type": "community_service", "land_use_code": "0806"}, "geometry": {"type": "Polygon", "coordinates": [[[116.34855505465923, 39.969511215784564], [116.34854000772877, 39.971096212264364], [116.35060004466634, 39.97110777155942], [116.3506150440238, 39.96952277443433], [116.34855505465923, 39.969511215784564]]]}}, {"type": "Feature", "id": "LU-003-015-0", "properties": {"id": "LU-003-015-0", "layer": "BUILDING_FOOTPRINT", "source_type": "agent_generated_design", "confidence": "low", "geometry_role": "design_proposal", "building_type": "retail", "land_use_code": "0901"}, "geometry": {"type": "Polygon", "coordinates": [[[116.34853453582221, 39.97167257451171], [116.34851948726666, 39.97325757039227], [116.35057958908261, 39.973269130567296], [116.35059459006001, 39.97168413404141], [116.34853453582221, 39.97167257451171]]]}}, {"type": "Feature", "id": "LU-003-016-0", "properties": {"id": "LU-003-016-0", "layer": "BUILDING_FOOTPRINT", "source_type": "agent_generated_design", "confidence": "low", "geometry_role": "design_proposal", "building_type": "cultural", "land_use_code": "0803"}, "geometry": {"type": "Polygon", "coordinates": [[[116.34851401476917, 39.9738339324217], [116.34849896458832, 39.97541892770302], [116.35055913128961, 39.975430488758064], [116.35057413388718, 39.97384549283139], [116.34851401476917, 39.9738339324217]]]}}, {"type": "Feature", "id": "LU-003-017-0", "properties": {"id": "LU-003-017-0", "layer": "BUILDING_FOOTPRINT", "source_type": "agent_generated_design", "confidence": "low", "geometry_role": "design_proposal", "building_type": "residential", "land_use_code": "0701"}, "geometry": {"type": "Polygon", "coordinates": [[[116.34849349149978, 39.975995289514536], [116.34847843969347, 39.97758028419659], [116.35053867128714, 39.97759184613172], [116.35055367550503, 39.976006850804275], [116.34849349149978, 39.975995289514536]]]}}, {"type": "Feature", "id": "LU-003-018-0", "properties": {"id": "LU-003-018-0", "layer": "BUILDING_FOOTPRINT", "source_type": "agent_generated_design", "confidence": "low", "geometry_role": "design_proposal", "building_type": "retail", "land_use_code": "0901"}, "geometry": {"type": "Polygon", "coordinates": [[[116.3484729660138, 39.9781566457902], [116.34845791258182, 39.979741639872984], [116.35051820907488, 39.97975320268826], [116.35053321491327, 39.97816820796003], [116.3484729660138, 39.9781566457902]]]}}, {"type": "Feature", "id": "LU-003-019-0", "properties": {"id": "LU-003-019-0", "layer": "BUILDING_FOOTPRINT", "source_type": "agent_generated_design", "confidence": "low", "geometry_role": "design_proposal", "building_type": "residential", "land_use_code": "0701"}, "geometry": {"type": "Polygon", "coordinates": [[[116.34845243831097, 39.980318001248676], [116.34843738325314, 39.98190299473219], [116.35049774465257, 39.98191455842765], [116.3505127521117, 39.98032956429865], [116.34845243831097, 39.980318001248676]]]}}, {"type": "Feature", "id": "LU-003-021-0", "properties": {"id": "LU-003-021-0", "layer": "BUILDING_FOOTPRINT", "source_type": "agent_generated_design", "confidence": "low", "geometry_role": "design_proposal", "building_type": "residential", "land_use_code": "0701"}, "geometry": {"type": "Polygon", "coordinates": [[[116.34841137625368, 39.98464070971403], [116.34839631794354, 39.98622570199896], [116.3504568091768, 39.986237267454975], [116.35047181987797, 39.98465227452447], [116.34841137625368, 39.98464070971403]]]}}, {"type": "Feature", "id": "LU-003-023-0", "properties": {"id": "LU-003-023-0", "layer": "BUILDING_FOOTPRINT", "source_type": "agent_generated_design", "confidence": "low", "geometry_role": "design_proposal", "building_type": "cultural", "land_use_code": "0803"}, "geometry": {"type": "Polygon", "coordinates": [[[116.34837030532577, 39.9889634149105], [116.34835524376254, 39.990548405996826], [116.35041586485765, 39.99055997321361], [116.35043087880162, 39.98897498148164], [116.34837030532577, 39.9889634149105]]]}}, {"type": "Feature", "id": "LU-003-024-0", "properties": {"id": "LU-003-024-0", "layer": "BUILDING_FOOTPRINT", "source_type": "agent_generated_design", "confidence": "low", "geometry_role": "design_proposal", "building_type": "community_service", "land_use_code": "0806"}, "geometry": {"type": "Polygon", "coordinates": [[[116.3483497665347, 39.99112476628287], [116.34833470334459, 39.99270975676989], [116.35039538938116, 39.992721324867134], [116.35041040494683, 39.991136333734445], [116.3483497665347, 39.99112476628287]]]}}, {"type": "Feature", "id": "LU-003-025-0", "properties": {"id": "LU-003-025-0", "layer": "BUILDING_FOOTPRINT", "source_type": "agent_generated_design", "confidence": "low", "geometry_role": "design_proposal", "building_type": "community_service", "land_use_code": "0806"}, "geometry": {"type": "Polygon", "coordinates": [[[116.34832922552512, 39.99328611683801], [116.348314160708, 39.994871106725675], [116.35037491169301, 39.99488267570343], [116.35038992888059, 39.99329768517005], [116.34832922552512, 39.99328611683801]]]}}, {"type": "Feature", "id": "LU-003-026-0", "properties": {"id": "LU-003-026-0", "layer": "BUILDING_FOOTPRINT", "source_type": "agent_generated_design", "confidence": "low", "geometry_role": "design_proposal", "building_type": "community_service", "land_use_code": "0806"}, "geometry": {"type": "Polygon", "coordinates": [[[116.34830868229683, 39.99544746657587], [116.34829361585248, 39.99703245586421], [116.35035443179298, 39.997044025722545], [116.35036945060261, 39.99545903578845], [116.34830868229683, 39.99544746657587]]]}}, {"type": "Feature", "id": "LU-003-027-0", "properties": {"id": "LU-003-027-0", "layer": "BUILDING_FOOTPRINT", "source_type": "agent_generated_design", "confidence": "low", "geometry_role": "design_proposal", "building_type": "retail", "land_use_code": "0901"}, "geometry": {"type": "Polygon", "coordinates": [[[116.34828813684956, 39.99760881549645], [116.34827306877777, 39.999193804185445], [116.35033394968076, 39.99920537492442], [116.3503489701127, 39.99762038558961], [116.34828813684956, 39.99760881549645]]]}}, {"type": "Feature", "id": "LU-003-028-0", "properties": {"id": "LU-003-028-0", "layer": "BUILDING_FOOTPRINT", "source_type": "agent_generated_design", "confidence": "low", "geometry_role": "design_proposal", "building_type": "retail", "land_use_code": "0901"}, "geometry": {"type": "Polygon", "coordinates": [[[116.34826758918302, 39.99977016359974], [116.34825251948361, 40.00135515168939], [116.3503134653561, 40.00136672330903], [116.35032848741052, 39.99978173457356], [116.34826758918302, 39.99977016359974]]]}}, {"type": "Feature", "id": "LU-003-031-0", "properties": {"id": "LU-003-031-0", "layer": "BUILDING_FOOTPRINT", "source_type": "agent_generated_design", "confidence": "low", "geometry_role": "design_proposal", "building_type": "community_service", "land_use_code": "0806"}, "geometry": {"type": "Polygon", "coordinates": [[[116.34820593286517, 40.00625420300577], [116.34819085828173, 40.00783918929731], [116.35025199910481, 40.00785076355934], [116.35026702602785, 40.00626577662184], [116.34820593286517, 40.00625420300577]]]}}, {"type": "Feature", "id": "LU-003-034-0", "properties": {"id": "LU-003-034-0", "layer": "BUILDING_FOOTPRINT", "source_type": "agent_generated_design", "confidence": "low", "geometry_role": "design_proposal", "building_type": "cultural", "land_use_code": "0803"}, "geometry": {"type": "Polygon", "coordinates": [[[116.34814425656435, 40.01273823505577], [116.34812917709506, 40.01432321954912], [116.35019051293195, 40.01433479645404], [116.35020554472537, 40.01274981131461], [116.34814425656435, 40.01273823505577]]]}}, {"type": "Feature", "id": "LU-003-035-0", "properties": {"id": "LU-003-035-0", "layer": "BUILDING_FOOTPRINT", "source_type": "agent_generated_design", "confidence": "low", "geometry_role": "design_proposal", "building_type": "cultural", "land_use_code": "0803"}, "geometry": {"type": "Polygon", "coordinates": [[[116.3481236933555, 40.01489957743772], [116.34810861225719, 40.016484561331644], [116.35017001311274, 40.016496139117635], [116.35018504653002, 40.01491115457759], [116.3481236933555, 40.01489957743772]]]}}, {"type": "Feature", "id": "LU-003-036-0", "properties": {"id": "LU-003-036-0", "layer": "BUILDING_FOOTPRINT", "source_type": "agent_generated_design", "confidence": "low", "geometry_role": "design_proposal", "building_type": "cultural", "land_use_code": "0803"}, "geometry": {"type": "Polygon", "coordinates": [[[116.34810312792524, 40.01706091900228], [116.34808804519776, 40.0186459022968], [116.35014951107895, 40.01865748096391], [116.35016454612027, 40.01707249702322], [116.34810312792524, 40.01706091900228]]]}}, {"type": "Feature", "id": "LU-003-037-0", "properties": {"id": "LU-003-037-0", "layer": "BUILDING_FOOTPRINT", "source_type": "agent_generated_design", "confidence": "low", "geometry_role": "design_proposal", "building_type": "retail", "land_use_code": "0901"}, "geometry": {"type": "Polygon", "coordinates": [[[116.34808256027333, 40.01922225974945], [116.34806747591642, 40.02080724244454], [116.35012900683031, 40.02081882199282], [116.35014404349589, 40.01923383865154], [116.34808256027333, 40.01922225974945]]]}}, {"type": "Feature", "id": "LU-003-038-0", "properties": {"id": "LU-003-038-0", "layer": "BUILDING_FOOTPRINT", "source_type": "agent_generated_design", "confidence": "low", "geometry_role": "design_proposal", "building_type": "community_service", "land_use_code": "0806"}, "geometry": {"type": "Polygon", "coordinates": [[[116.34806199039944, 40.02138359967922], [116.34804690441295, 40.02296858177486], [116.35010850036655, 40.022980162204384], [116.35012353865658, 40.0213951794625], [116.34806199039944, 40.02138359967922]]]}}, {"type": "Feature", "id": "LU-003-039-0", "properties": {"id": "LU-003-039-0", "layer": "BUILDING_FOOTPRINT", "source_type": "agent_generated_design", "confidence": "low", "geometry_role": "design_proposal", "building_type": "cultural", "land_use_code": "0803"}, "geometry": {"type": "Polygon", "coordinates": [[[116.34804141830338, 40.02354493879156], [116.3480263306871, 40.02512992028777], [116.35008799168743, 40.02514150159858], [116.35010303160209, 40.023556519456086], [116.34804141830338, 40.02354493879156]]]}}, {"type": "Feature", "id": "LU-003-040-0", "properties": {"id": "LU-003-040-0", "layer": "BUILDING_FOOTPRINT", "source_type": "agent_generated_design", "confidence": "low", "geometry_role": "design_proposal", "building_type": "education", "land_use_code": "0804"}, "geometry": {"type": "Polygon", "coordinates": [[[116.35008252233214, 40.02571785863232], [116.34802084398484, 40.025706277086485], [116.34801602974095, 40.026211981016324], [116.35007783322743, 40.02621198011187], [116.35008252233214, 40.02571785863232]]]}}, {"type": "Feature", "id": "LU-004-000-0", "properties": {"id": "LU-004-000-0", "layer": "BUILDING_FOOTPRINT", "source_type": "agent_generated_design", "confidence": "low", "geometry_role": "design_proposal", "building_type": "education", "land_use_code": "0804"}, "geometry": {"type": "Polygon", "coordinates": [[[116.35163496562993, 39.94085284949575], [116.35369409662184, 39.94086434661249], [116.35370892444439, 39.93928827984977], [116.3516497314016, 39.93928836289278], [116.35163496562993, 39.94085284949575]]]}}, {"type": "Feature", "id": "LU-004-001-0", "properties": {"id": "LU-004-001-0", "layer": "BUILDING_FOOTPRINT", "source_type": "agent_generated_design", "confidence": "low", "geometry_role": "design_proposal", "building_type": "retail", "land_use_code": "0901"}, "geometry": {"type": "Polygon", "coordinates": [[[116.3516295255451, 39.941429215113], [116.35161456450416, 39.94301422026088], [116.35367376027665, 39.94302571825303], [116.35368867381113, 39.94144071246318], [116.3516295255451, 39.941429215113]]]}}, {"type": "Feature", "id": "LU-004-002-0", "properties": {"id": "LU-004-002-0", "layer": "BUILDING_FOOTPRINT", "source_type": "agent_generated_design", "confidence": "low", "geometry_role": "design_proposal", "building_type": "cultural", "land_use_code": "0803"}, "geometry": {"type": "Polygon", "coordinates": [[[116.35160912383193, 39.94359058566028], [116.35159416117543, 39.94517559020909], [116.35365342173544, 39.94518708907672], [116.35366833688038, 39.94360208388589], [116.35160912383193, 39.94359058566028]]]}}, {"type": "Feature", "id": "LU-004-005-0", "properties": {"id": "LU-004-005-0", "layer": "BUILDING_FOOTPRINT", "source_type": "agent_generated_design", "confidence": "low", "geometry_role": "design_proposal", "building_type": "community_service", "land_use_code": "0806"}, "geometry": {"type": "Polygon", "coordinates": [[[116.351547905473, 39.950074692400534], [116.35153293796874, 39.95165969515207], [116.35359239293341, 39.951671196646416], [116.35360731291074, 39.95008619325275], [116.351547905473, 39.950074692400534]]]}}, {"type": "Feature", "id": "LU-004-006-0", "properties": {"id": "LU-004-006-0", "layer": "BUILDING_FOOTPRINT", "source_type": "agent_generated_design", "confidence": "low", "geometry_role": "design_proposal", "building_type": "community_service", "land_use_code": "0806"}, "geometry": {"type": "Polygon", "coordinates": [[[116.35152749494605, 39.95223605968006], [116.35151252582544, 39.95382106183248], [116.35357204560566, 39.9538325642025], [116.35358696719418, 39.95224756140792], [116.35152749494605, 39.95223605968006]]]}}, {"type": "Feature", "id": "LU-004-008-0", "properties": {"id": "LU-004-008-0", "layer": "BUILDING_FOOTPRINT", "source_type": "agent_generated_design", "confidence": "low", "geometry_role": "design_proposal", "building_type": "cultural", "land_use_code": "0803"}, "geometry": {"type": "Polygon", "coordinates": [[[116.35148666727952, 39.956558791788176], [116.3514716949257, 39.95814379274235], [116.353531344358, 39.95815529686391], [116.35354626916947, 39.95657029526749], [116.35148666727952, 39.956558791788176]]]}}, {"type": "Feature", "id": "LU-004-009-0", "properties": {"id": "LU-004-009-0", "layer": "BUILDING_FOOTPRINT", "source_type": "agent_generated_design", "confidence": "low", "geometry_role": "design_proposal", "building_type": "retail", "land_use_code": "0901"}, "geometry": {"type": "Polygon", "coordinates": [[[116.35146625013944, 39.958720156616735], [116.35145127616873, 39.96030515697178], [116.35351099043756, 39.96031666196919], [116.3535259168608, 39.958731660971864], [116.35146625013944, 39.958720156616735]]]}}, {"type": "Feature", "id": "LU-004-011-0", "properties": {"id": "LU-004-011-0", "layer": "BUILDING_FOOTPRINT", "source_type": "agent_generated_design", "confidence": "low", "geometry_role": "design_proposal", "building_type": "community_service", "land_use_code": "0806"}, "geometry": {"type": "Polygon", "coordinates": [[[116.35142540924429, 39.96304288382286], [116.35141043203919, 39.9646278829796], [116.3534702760021, 39.964639389728866], [116.35348520564945, 39.963054389929745], [116.35142540924429, 39.96304288382286]]]}}, {"type": "Feature", "id": "LU-004-013-0", "properties": {"id": "LU-004-013-0", "layer": "BUILDING_FOOTPRINT", "source_type": "agent_generated_design", "confidence": "low", "geometry_role": "design_proposal", "building_type": "cultural", "land_use_code": "0803"}, "geometry": {"type": "Polygon", "coordinates": [[[116.35138455952742, 39.96736560776086], [116.35136957908713, 39.968950605719265], [116.35342955277211, 39.9689621142206], [116.35344448564439, 39.96737711561975], [116.35138455952742, 39.96736560776086]]]}}, {"type": "Feature", "id": "LU-004-014-0", "properties": {"id": "LU-004-014-0", "layer": "BUILDING_FOOTPRINT", "source_type": "agent_generated_design", "confidence": "low", "geometry_role": "design_proposal", "building_type": "community_service", "land_use_code": "0806"}, "geometry": {"type": "Polygon", "coordinates": [[[116.35136413136016, 39.96952696850429], [116.35134914930198, 39.971111965863514], [116.35340918785853, 39.97112347524097], [116.35342412234354, 39.969538477239254], [116.35136413136016, 39.96952696850429]]]}}, {"type": "Feature", "id": "LU-004-015-0", "properties": {"id": "LU-004-015-0", "layer": "BUILDING_FOOTPRINT", "source_type": "agent_generated_design", "confidence": "low", "geometry_role": "design_proposal", "building_type": "residential", "land_use_code": "0701"}, "geometry": {"type": "Polygon", "coordinates": [[[116.35134370098665, 39.97168832843066], [116.35132871731042, 39.97327332519069], [116.35338882074552, 39.973284835444325], [116.35340375684345, 39.97169983804175], [116.35134370098665, 39.97168832843066]]]}}, {"type": "Feature", "id": "LU-004-019-0", "properties": {"id": "LU-004-019-0", "layer": "BUILDING_FOOTPRINT", "source_type": "agent_generated_design", "confidence": "low", "geometry_role": "design_proposal", "building_type": "retail", "land_use_code": "0901"}, "geometry": {"type": "Polygon", "coordinates": [[[116.35126195742504, 39.98033375996524], [116.35124696727456, 39.98191875432845], [116.35330733029394, 39.98193026808731], [116.35332227284559, 39.98034527308141], [116.35126195742504, 39.98033375996524]]]}}, {"type": "Feature", "id": "LU-004-020-0", "properties": {"id": "LU-004-020-0", "layer": "BUILDING_FOOTPRINT", "source_type": "agent_generated_design", "confidence": "low", "geometry_role": "design_proposal", "building_type": "retail", "land_use_code": "0901"}, "geometry": {"type": "Polygon", "coordinates": [[[116.35124151601639, 39.98249511580611], [116.35122652424685, 39.98408010957009], [116.35328695217986, 39.9840916242054], [116.35330189634539, 39.9825066297987], [116.35124151601639, 39.98249511580611]]]}}, {"type": "Feature", "id": "LU-004-021-0", "properties": {"id": "LU-004-021-0", "layer": "BUILDING_FOOTPRINT", "source_type": "agent_generated_design", "confidence": "low", "geometry_role": "design_proposal", "building_type": "residential", "land_use_code": "0701"}, "geometry": {"type": "Polygon", "coordinates": [[[116.35328151764436, 39.98466798569889], [116.35122107239991, 39.98465647082984], [116.35120607901113, 39.98624146399459], [116.35322452766279, 39.98625274489936], [116.35327219028235, 39.985657163396986], [116.35328151764436, 39.98466798569889]]]}}, {"type": "Feature", "id": "LU-004-022-0", "properties": {"id": "LU-004-022-0", "layer": "BUILDING_FOOTPRINT", "source_type": "agent_generated_design", "confidence": "low", "geometry_role": "design_proposal", "building_type": "education", "land_use_code": "0804"}, "geometry": {"type": "Polygon", "coordinates": [[[116.35120062657533, 39.98681782503645], [116.35118563156713, 39.98840281760194], [116.3530516214143, 39.98841324812295], [116.35317842048433, 39.9868288792045], [116.35120062657533, 39.98681782503645]]]}}, {"type": "Feature", "id": "LU-004-023-0", "properties": {"id": "LU-004-023-0", "layer": "BUILDING_FOOTPRINT", "source_type": "agent_generated_design", "confidence": "low", "geometry_role": "design_proposal", "building_type": "cultural", "land_use_code": "0803"}, "geometry": {"type": "Polygon", "coordinates": [[[116.35118017854239, 39.98897917842588], [116.35116518191457, 39.990564170392105], [116.35295644665443, 39.99057418423883], [116.35292566646251, 39.9900121292575], [116.35292604250361, 39.989982292203756], [116.35300551108716, 39.98898938212214], [116.35118017854239, 39.98897917842588]]]}}, {"type": "Feature", "id": "LU-004-025-0", "properties": {"id": "LU-004-025-0", "layer": "BUILDING_FOOTPRINT", "source_type": "agent_generated_design", "confidence": "low", "geometry_role": "design_proposal", "building_type": "community_service", "land_use_code": "0805"}, "geometry": {"type": "Polygon", "coordinates": [[[116.35113927585039, 39.99330188275324], [116.35112427598268, 39.994886873520926], [116.35318502858883, 39.99489839253929], [116.35318623971862, 39.99477001308069], [116.35310643400491, 39.99331287903969], [116.35113927585039, 39.99330188275324]]]}}, {"type": "Feature", "id": "LU-004-026-0", "properties": {"id": "LU-004-026-0", "layer": "BUILDING_FOOTPRINT", "source_type": "agent_generated_design", "confidence": "low", "geometry_role": "design_proposal", "building_type": "retail", "land_use_code": "0901"}, "geometry": {"type": "Polygon", "coordinates": [[[116.35111882119078, 39.99546323369114], [116.35110381970286, 39.997048223859544], [116.35316463726467, 39.997059743754676], [116.35317959111774, 39.995474752943295], [116.35111882119078, 39.99546323369114]]]}}, {"type": "Feature", "id": "LU-004-027-0", "properties": {"id": "LU-004-027-0", "layer": "BUILDING_FOOTPRINT", "source_type": "agent_generated_design", "confidence": "low", "geometry_role": "design_proposal", "building_type": "community_service", "land_use_code": "0806"}, "geometry": {"type": "Polygon", "coordinates": [[[116.35109836432173, 39.99762458381182], [116.3510833612134, 39.99920957338095], [116.35314424373789, 39.99922109415292], [116.35315919920625, 39.99763610394078], [116.35109836432173, 39.99762458381182]]]}}, {"type": "Feature", "id": "LU-004-029-0", "properties": {"id": "LU-004-029-0", "layer": "BUILDING_FOOTPRINT", "source_type": "agent_generated_design", "confidence": "low", "geometry_role": "design_proposal", "building_type": "cultural", "land_use_code": "0803"}, "geometry": {"type": "Polygon", "coordinates": [[[116.35105744395429, 40.001947281601566], [116.35104243760455, 40.003532269972084], [116.35310345007545, 40.00354379249788], [116.35311840877492, 40.001958803484264], [116.35105744395429, 40.001947281601566]]]}}, {"type": "Feature", "id": "LU-004-030-0", "properties": {"id": "LU-004-030-0", "layer": "BUILDING_FOOTPRINT", "source_type": "agent_generated_design", "confidence": "low", "geometry_role": "design_proposal", "building_type": "cultural", "land_use_code": "0803"}, "geometry": {"type": "Polygon", "coordinates": [[[116.35103698045536, 40.00410862927058], [116.35102197248463, 40.00569361704179], [116.35308304993926, 40.00570514044456], [116.3530980102546, 40.00412015203023], [116.35103698045536, 40.00410862927058]]]}}, {"type": "Feature", "id": "LU-004-031-0", "properties": {"id": "LU-004-031-0", "layer": "BUILDING_FOOTPRINT", "source_type": "agent_generated_design", "confidence": "low", "geometry_role": "design_proposal", "building_type": "community_service", "land_use_code": "0806"}, "geometry": {"type": "Polygon", "coordinates": [[[116.35101651474594, 40.00626997612234], [116.35100150515399, 40.00785496329424], [116.35306264759939, 40.00786648757406], [116.35307760953079, 40.006281499759], [116.35101651474594, 40.00626997612234]]]}}, {"type": "Feature", "id": "LU-004-032-0", "properties": {"id": "LU-004-032-0", "layer": "BUILDING_FOOTPRINT", "source_type": "agent_generated_design", "confidence": "low", "geometry_role": "design_proposal", "building_type": "community_service", "land_use_code": "0806"}, "geometry": {"type": "Polygon", "coordinates": [[[116.35099604682577, 40.00843132215685], [116.35098103561242, 40.01001630872942], [116.3530422430556, 40.01002783388634], [116.35305720660322, 40.00844284667057], [116.35099604682577, 40.00843132215685]]]}}, {"type": "Feature", "id": "LU-004-034-0", "properties": {"id": "LU-004-034-0", "layer": "BUILDING_FOOTPRINT", "source_type": "agent_generated_design", "confidence": "low", "geometry_role": "design_proposal", "building_type": "cultural", "land_use_code": "0803"}, "geometry": {"type": "Polygon", "coordinates": [[[116.35095510435207, 40.01275401177404], [116.35094008989535, 40.0143389971479], [116.35300142735512, 40.01435052405919], [116.35301639413585, 40.01276553804204], [116.35095510435207, 40.01275401177404]]]}}, {"type": "Feature", "id": "LU-004-035-0", "properties": {"id": "LU-004-035-0", "layer": "BUILDING_FOOTPRINT", "source_type": "agent_generated_design", "confidence": "low", "geometry_role": "design_proposal", "building_type": "cultural", "land_use_code": "0803"}, "geometry": {"type": "Polygon", "coordinates": [[[116.350934629798, 40.01491535535669], [116.35091961371931, 40.016500340131195], [116.35298101619793, 40.01651186791975], [116.35299598459545, 40.01492688250192], [116.350934629798, 40.01491535535669]]]}}, {"type": "Feature", "id": "LU-004-036-0", "properties": {"id": "LU-004-036-0", "layer": "BUILDING_FOOTPRINT", "source_type": "agent_generated_design", "confidence": "low", "geometry_role": "design_proposal", "building_type": "residential", "land_use_code": "0701"}, "geometry": {"type": "Polygon", "coordinates": [[[116.35091415303212, 40.01707669812205], [116.35089913533126, 40.018661682297186], [116.35296060283574, 40.01867321096306], [116.35297557285028, 40.017088226144544], [116.35091415303212, 40.01707669812205]]]}}, {"type": "Feature", "id": "LU-004-037-0", "properties": {"id": "LU-004-037-0", "layer": "BUILDING_FOOTPRINT", "source_type": "agent_generated_design", "confidence": "low", "geometry_role": "design_proposal", "building_type": "community_service", "land_use_code": "0806"}, "geometry": {"type": "Polygon", "coordinates": [[[116.35089367405415, 40.01923804007008], [116.35087865473089, 40.02082302364584], [116.35294018726827, 40.02083455318909], [116.35295515890004, 40.01924956896992], [116.35089367405415, 40.01923804007008]]]}}, {"type": "Feature", "id": "LU-004-039-0", "properties": {"id": "LU-004-039-0", "layer": "BUILDING_FOOTPRINT", "source_type": "agent_generated_design", "confidence": "low", "geometry_role": "design_proposal", "building_type": "retail", "land_use_code": "0901"}, "geometry": {"type": "Polygon", "coordinates": [[[116.35085270946084, 40.02356072151414], [116.35083768689228, 40.02514570389113], [116.35289934951648, 40.0251572351893], [116.35291432438328, 40.0235722521688], [116.35085270946084, 40.02356072151414]]]}}, {"type": "Feature", "id": "LU-005-001-0", "properties": {"id": "LU-005-001-0", "layer": "BUILDING_FOOTPRINT", "source_type": "agent_generated_design", "confidence": "low", "geometry_role": "design_proposal", "building_type": "residential", "land_use_code": "0701"}, "geometry": {"type": "Polygon", "coordinates": [[[116.35443745529177, 39.94144488425133], [116.35442255903234, 39.94302989027413], [116.35492559940444, 39.94303269030723], [116.35492560501847, 39.94144760134214], [116.35443745529177, 39.94144488425133]]]}}, {"type": "Feature", "id": "LU-005-003-0", "properties": {"id": "LU-005-003-0", "layer": "BUILDING_FOOTPRINT", "source_type": "agent_generated_design", "confidence": "low", "geometry_role": "design_proposal", "building_type": "community_service", "land_use_code": "0805"}, "geometry": {"type": "Polygon", "coordinates": [[[116.35439682635128, 39.9457676269152], [116.35438192687458, 39.94735263173994], [116.35492558159261, 39.94735565801664], [116.35492558854858, 39.94577057022957], [116.35439682635128, 39.9457676269152]]]}}, {"type": "Feature", "id": "LU-005-004-0", "properties": {"id": "LU-005-004-0", "layer": "BUILDING_FOOTPRINT", "source_type": "agent_generated_design", "confidence": "low", "geometry_role": "design_proposal", "building_type": "education", "land_use_code": "0804"}, "geometry": {"type": "Polygon", "coordinates": [[[116.35437650859053, 39.94792899702184], [116.35436160750488, 39.94951400124754], [116.35492557131418, 39.94951714066653], [116.35492557894118, 39.947932053468485], [116.35437650859053, 39.94792899702184]]]}}, {"type": "Feature", "id": "LU-005-006-0", "properties": {"id": "LU-005-006-0", "layer": "BUILDING_FOOTPRINT", "source_type": "agent_generated_design", "confidence": "low", "geometry_role": "design_proposal", "building_type": "residential", "land_use_code": "0701"}, "geometry": {"type": "Polygon", "coordinates": [[[116.35433586648664, 39.9522517347845], [116.35432096218254, 39.95383673781211], [116.35492554801193, 39.95384010355661], [116.35492555698113, 39.952255017536636], [116.35433586648664, 39.9522517347845]]]}}, {"type": "Feature", "id": "LU-005-008-0", "properties": {"id": "LU-005-008-0", "layer": "BUILDING_FOOTPRINT", "source_type": "agent_generated_design", "confidence": "low", "geometry_role": "design_proposal", "building_type": "residential", "land_use_code": "0701"}, "geometry": {"type": "Polygon", "coordinates": [[[116.35429521560448, 39.95657446927958], [116.35428030808116, 39.95815947110904], [116.35492552104884, 39.9581630632337], [116.35492553136041, 39.95657797839183], [116.35429521560448, 39.95657446927958]]]}}, {"type": "Feature", "id": "LU-005-009-0", "properties": {"id": "LU-005-009-0", "layer": "BUILDING_FOOTPRINT", "source_type": "agent_generated_design", "confidence": "low", "geometry_role": "design_proposal", "building_type": "community_service", "land_use_code": "0806"}, "geometry": {"type": "Polygon", "coordinates": [[[116.3542748868709, 39.95873583530174], [116.35425997773766, 39.96032083653211], [116.35492550619433, 39.960324541867344], [116.35492551717715, 39.95873945761455], [116.3542748868709, 39.95873583530174]]]}}, {"type": "Feature", "id": "LU-005-011-0", "properties": {"id": "LU-005-011-0", "layer": "BUILDING_FOOTPRINT", "source_type": "agent_generated_design", "confidence": "low", "geometry_role": "design_proposal", "building_type": "retail", "land_use_code": "0901"}, "geometry": {"type": "Polygon", "coordinates": [[[116.35423422281738, 39.963058564895256], [116.35421931046376, 39.96464356492746], [116.35492547373912, 39.96464749672481], [116.35492548606454, 39.96306241365015], [116.35423422281738, 39.963058564895256]]]}}, {"type": "Feature", "id": "LU-005-014-0", "properties": {"id": "LU-005-014-0", "layer": "BUILDING_FOOTPRINT", "source_type": "agent_generated_design", "confidence": "low", "geometry_role": "design_proposal", "building_type": "education", "land_use_code": "0804"}, "geometry": {"type": "Polygon", "coordinates": [[[116.35417321026729, 39.969542653158356], [116.35415829308164, 39.971127651393196], [116.35443454092761, 39.97112919021273], [116.35456127076992, 39.96954481456463], [116.35417321026729, 39.969542653158356]]]}}, {"type": "Feature", "id": "LU-005-016-0", "properties": {"id": "LU-005-016-0", "layer": "BUILDING_FOOTPRINT", "source_type": "agent_generated_design", "confidence": "low", "geometry_role": "design_proposal", "building_type": "community_service", "land_use_code": "0805"}, "geometry": {"type": "Polygon", "coordinates": [[[116.35413252425094, 39.973865374582154], [116.35412143610331, 39.97504328208488], [116.35421562898837, 39.973865837606766], [116.35413252425094, 39.973865374582154]]]}}, {"type": "Feature", "id": "LU-005-031-0", "properties": {"id": "LU-005-031-0", "layer": "BUILDING_FOOTPRINT", "source_type": "agent_generated_design", "confidence": "low", "geometry_role": "design_proposal", "building_type": "retail", "land_use_code": "0901"}, "geometry": {"type": "Polygon", "coordinates": [[[116.35382562285761, 40.00644222553466], [116.35381215423723, 40.007870669133574], [116.35390391171919, 40.007871180723086], [116.35382562285761, 40.00644222553466]]]}}, {"type": "Feature", "id": "LU-005-032-0", "properties": {"id": "LU-005-032-0", "layer": "BUILDING_FOOTPRINT", "source_type": "agent_generated_design", "confidence": "low", "geometry_role": "design_proposal", "building_type": "retail", "land_use_code": "0901"}, "geometry": {"type": "Polygon", "coordinates": [[[116.35380671954363, 40.00844702831495], [116.35379177332904, 40.010032015764104], [116.35402237436105, 40.01003330138847], [116.35393550111553, 40.008447746318495], [116.35380671954363, 40.00844702831495]]]}}, {"type": "Feature", "id": "LU-005-033-0", "properties": {"id": "LU-005-033-0", "layer": "BUILDING_FOOTPRINT", "source_type": "agent_generated_design", "confidence": "low", "geometry_role": "design_proposal", "building_type": "community_service", "land_use_code": "0806"}, "geometry": {"type": "Polygon", "coordinates": [[[116.35378633804835, 40.01060837472756], [116.35377139021917, 40.012193361577424], [116.35414084356427, 40.0121954211881], [116.35405396550698, 40.01060986675302], [116.35378633804835, 40.01060837472756]]]}}, {"type": "Feature", "id": "LU-005-036-0", "properties": {"id": "LU-005-036-0", "layer": "BUILDING_FOOTPRINT", "source_type": "agent_generated_design", "confidence": "low", "geometry_role": "design_proposal", "building_type": "retail", "land_use_code": "0901"}, "geometry": {"type": "Polygon", "coordinates": [[[116.3537251803511, 40.01709240906209], [116.35371022767706, 40.01867739411404], [116.35449629055357, 40.018681775392345], [116.35440939805588, 40.01709622286201], [116.3537251803511, 40.01709240906209]]]}}, {"type": "Feature", "id": "LU-005-037-0", "properties": {"id": "LU-005-037-0", "layer": "BUILDING_FOOTPRINT", "source_type": "agent_generated_design", "confidence": "low", "geometry_role": "design_proposal", "building_type": "residential", "land_use_code": "0701"}, "geometry": {"type": "Polygon", "coordinates": [[[116.35370479004735, 40.0192537522058], [116.35368983575793, 40.020838736658426], [116.35461478601373, 40.02084389172872], [116.3545278887009, 40.01925833983337], [116.35370479004735, 40.0192537522058]]]}}, {"type": "Feature", "id": "LU-005-038-0", "properties": {"id": "LU-005-038-0", "layer": "BUILDING_FOOTPRINT", "source_type": "agent_generated_design", "confidence": "low", "geometry_role": "design_proposal", "building_type": "education", "land_use_code": "0804"}, "geometry": {"type": "Polygon", "coordinates": [[[116.35368439754079, 40.021415094532244], [116.35366944163586, 40.02300007838555], [116.354733288041, 40.023006007199186], [116.35464638591216, 40.02142045593885], [116.35368439754079, 40.021415094532244]]]}}, {"type": "Feature", "id": "LU-005-039-0", "properties": {"id": "LU-005-039-0", "layer": "BUILDING_FOOTPRINT", "source_type": "agent_generated_design", "confidence": "low", "geometry_role": "design_proposal", "building_type": "cultural", "land_use_code": "0803"}, "geometry": {"type": "Polygon", "coordinates": [[[116.3536640028312, 40.02357643604141], [116.35364904531053, 40.025161419295394], [116.35485179663657, 40.02516812180371], [116.35476488969086, 40.02358257117839], [116.3536640028312, 40.02357643604141]]]}}, {"type": "Feature", "id": "LU-005-040-0", "properties": {"id": "LU-005-040-0", "layer": "BUILDING_FOOTPRINT", "source_type": "agent_generated_design", "confidence": "low", "geometry_role": "design_proposal", "building_type": "residential", "land_use_code": "0701"}, "geometry": {"type": "Polygon", "coordinates": [[[116.35364360591831, 40.02573777673333], [116.35363913132073, 40.02621189213862], [116.35490900637987, 40.026211834296724], [116.35488340003816, 40.025744685551985], [116.35364360591831, 40.02573777673333]]]}}]}
