{"type": "FeatureCollection", "features": [{"type": "Feature", "id": "PROV-KEY-001", "properties": {"id": "PROV-KEY-001", "layer": "KEY_AREA", "source_type": "agent_inferred_from_public_data", "confidence": "medium", "geometry_role": "provisional_constraint", "official_boundary": false, "area_id": "zhongzhiyuan_ai_acceleration_area", "name_zh": "众智园 AI 加速区", "area_sqm_declared": 1937132.4}, "geometry": {"type": "Polygon", "coordinates": [[[116.35417310591693, 40.00763957985314], [116.35400072415744, 40.02592322769478], [116.3428239002694, 40.02586037977657], [116.34299926399137, 40.00757677238202], [116.35417310591693, 40.00763957985314]]]}}, {"type": "Feature", "id": "PROV-KEY-002", "properties": {"id": "PROV-KEY-002", "layer": "KEY_AREA", "source_type": "agent_inferred_from_public_data", "confidence": "medium", "geometry_role": "provisional_constraint", "official_boundary": false, "area_id": "beijing_ai_origin_community", "name_zh": "北京 AI 原点社区", "area_sqm_declared": 1045688.4}, "geometry": {"type": "Polygon", "coordinates": [[[116.35309374981048, 39.983562447686175], [116.353, 39.99349999999998], [116.34190464276104, 39.99343753045523], [116.34200000000001, 39.98349999999999], [116.35309374981048, 39.983562447686175]]]}}, {"type": "Feature", "id": "PROV-KEY-003", "properties": {"id": "PROV-KEY-003", "layer": "KEY_AREA", "source_type": "agent_inferred_from_public_data", "confidence": "medium", "geometry_role": "provisional_constraint", "official_boundary": false, "area_id": "dazhongsi_ai_industry_cluster", "name_zh": "大钟寺 AI 产业簇群", "area_sqm_declared": 717212.3}, "geometry": {"type": "Polygon", "coordinates": [[[116.35505426047865, 39.944062148026774], [116.35499989473941, 39.94985120690453], [116.34194464141156, 39.9497778370304], [116.34200010735981, 39.9439887931131], [116.35505426047865, 39.944062148026774]]]}}]}
