{"type": "FeatureCollection", "features": [{"type": "Feature", "id": "PH-1", "properties": {"id": "PH-1", "layer": "PHASE", "source_type": "agent_generated_design", "confidence": "low", "geometry_role": "design_proposal", "phase": "1", "phase_name_zh": "近期 示范启动期"}, "geometry": {"type": "Polygon", "coordinates": [[[116.35529998985531, 39.9650001268591], [116.3553, 39.965], [116.3553, 39.939], [116.34070000000001, 39.93899999999999], [116.33997790564776, 39.96500014522558], [116.35529998985531, 39.9650001268591]]]}}, {"type": "Feature", "id": "PH-2", "properties": {"id": "PH-2", "layer": "PHASE", "source_type": "agent_generated_design", "confidence": "low", "geometry_role": "design_proposal", "phase": "2", "phase_name_zh": "中期 能级跃升期"}, "geometry": {"type": "Polygon", "coordinates": [[[116.33997790564776, 39.96500014522558], [116.3397, 39.975], [116.3407965851377, 39.99200019549255], [116.35340955336045, 39.99200023868983], [116.3533, 39.989999999999995], [116.35529998985531, 39.9650001268591], [116.33997790564776, 39.96500014522558]]]}}, {"type": "Feature", "id": "PH-3", "properties": {"id": "PH-3", "layer": "PHASE", "source_type": "agent_generated_design", "confidence": "low", "geometry_role": "design_proposal", "phase": "3", "phase_name_zh": "远期 全域成熟期"}, "geometry": {"type": "Polygon", "coordinates": [[[116.3407965851377, 39.99200019549255], [116.34169999999999, 40.00600000000001], [116.34270000000001, 40.0265], [116.3553, 40.0265], [116.35340955336045, 39.99200023868983], [116.3407965851377, 39.99200019549255]]]}}]}
