{"type": "FeatureCollection", "features": [{"type": "Feature", "id": "LU-000-010-0", "properties": {"id": "LU-000-010-0", "layer": "PUBLIC_SPACE", "source_type": "agent_inferred_from_public_data", "confidence": "low", "geometry_role": "existing_condition", "land_use_code": "1403"}, "geometry": {"type": "Polygon", "coordinates": [[[116.34262723431856, 39.9627051279255], [116.34264793263583, 39.960543768395915], [116.34010212181009, 39.960529304253676], [116.3400420801844, 39.96269043915882], [116.34262723431856, 39.9627051279255]]]}}, {"type": "Feature", "id": "LU-000-011-0", "properties": {"id": "LU-000-011-0", "layer": "PUBLIC_SPACE", "source_type": "agent_inferred_from_public_data", "confidence": "low", "geometry_role": "existing_condition", "land_use_code": "1403"}, "geometry": {"type": "Polygon", "coordinates": [[[116.34260653376599, 39.964866486637845], [116.34262723431856, 39.9627051279255], [116.3400420801844, 39.96269043915882], [116.33998203384287, 39.96485157319931], [116.34260653376599, 39.964866486637845]]]}}, {"type": "Feature", "id": "LU-000-015-0", "properties": {"id": "LU-000-015-0", "layer": "PUBLIC_SPACE", "source_type": "agent_inferred_from_public_data", "confidence": "low", "geometry_role": "existing_condition", "land_use_code": "1401"}, "geometry": {"type": "Polygon", "coordinates": [[[116.34252370919715, 39.973511913314304], [116.34254441869369, 39.97135055787113], [116.33980186651631, 39.971334970132595], [116.33974180130458, 39.97349610071425], [116.34252370919715, 39.973511913314304]]]}}, {"type": "Feature", "id": "LU-000-017-0", "properties": {"id": "LU-000-017-0", "layer": "PUBLIC_SPACE", "source_type": "agent_inferred_from_public_data", "confidence": "low", "geometry_role": "existing_condition", "land_use_code": "1401"}, "geometry": {"type": "Polygon", "coordinates": [[[116.34248228349384, 39.977834621748656], [116.34250299746397, 39.97567326794015], [116.33974240736312, 39.97565757606688], [116.33988185794577, 39.97781984142819], [116.34248228349384, 39.977834621748656]]]}}, {"type": "Feature", "id": "LU-000-019-0", "properties": {"id": "LU-000-019-0", "layer": "PUBLIC_SPACE", "source_type": "agent_inferred_from_public_data", "confidence": "low", "geometry_role": "existing_condition", "land_use_code": "1403"}, "geometry": {"type": "Polygon", "coordinates": [[[116.34244084884169, 39.98215732691364], [116.34246156728648, 39.97999597473982], [116.34002131638532, 39.97998210588952], [116.34016078268314, 39.982144369450815], [116.34244084884169, 39.98215732691364]]]}}, {"type": "Feature", "id": "LU-001-001-0", "properties": {"id": "LU-001-001-0", "layer": "PUBLIC_SPACE", "source_type": "agent_inferred_from_public_data", "confidence": "low", "geometry_role": "existing_condition", "land_use_code": "1403"}, "geometry": {"type": "Polygon", "coordinates": [[[116.34283411694629, 39.94109149585476], [116.34281343873477, 39.94325286273918], [116.34562143810732, 39.94326874598651], [116.34564202798123, 39.9411073778928], [116.34283411694629, 39.94109149585476]]]}}, {"type": "Feature", "id": "LU-001-003-0", "properties": {"id": "LU-001-003-0", "layer": "PUBLIC_SPACE", "source_type": "agent_inferred_from_public_data", "confidence": "low", "geometry_role": "existing_condition", "land_use_code": "1401"}, "geometry": {"type": "Polygon", "coordinates": [[[116.34279275829036, 39.94541422880644], [116.34277207561279, 39.94757559405654], [116.34558025168914, 39.947591479722654], [116.34560084601003, 39.94543011326313], [116.34279275829036, 39.94541422880644]]]}}, {"type": "Feature", "id": "LU-001-004-0", "properties": {"id": "LU-001-004-0", "layer": "PUBLIC_SPACE", "source_type": "agent_inferred_from_public_data", "confidence": "low", "geometry_role": "existing_condition", "land_use_code": "1403"}, "geometry": {"type": "Polygon", "coordinates": [[[116.34277207561279, 39.94757559405654], [116.34275139070175, 39.94973695848946], [116.34555965514436, 39.94975284536508], [116.34558025168914, 39.947591479722654], [116.34277207561279, 39.94757559405654]]]}}, {"type": "Feature", "id": "LU-001-008-0", "properties": {"id": "LU-001-008-0", "layer": "PUBLIC_SPACE", "source_type": "agent_inferred_from_public_data", "confidence": "low", "geometry_role": "existing_condition", "land_use_code": "1403"}, "geometry": {"type": "Polygon", "coordinates": [[[116.34268932256546, 39.95622104688501], [116.34266862871803, 39.95838240804908], [116.34547724672089, 39.958398299763495], [116.34549785216393, 39.95623693738962], [116.34268932256546, 39.95622104688501]]]}}, {"type": "Feature", "id": "LU-001-014-0", "properties": {"id": "LU-001-014-0", "layer": "PUBLIC_SPACE", "source_type": "agent_inferred_from_public_data", "confidence": "low", "geometry_role": "existing_condition", "land_use_code": "1401"}, "geometry": {"type": "Polygon", "coordinates": [[[116.34256512595381, 39.969189201610654], [116.34254441869369, 39.97135055787113], [116.34535356732339, 39.971366456845985], [116.34537418612183, 39.96920509937525], [116.34256512595381, 39.969189201610654]]]}}, {"type": "Feature", "id": "LU-001-015-0", "properties": {"id": "LU-001-015-0", "layer": "PUBLIC_SPACE", "source_type": "agent_inferred_from_public_data", "confidence": "low", "geometry_role": "existing_condition", "land_use_code": "1401"}, "geometry": {"type": "Polygon", "coordinates": [[[116.34254441869369, 39.97135055787113], [116.34252370919715, 39.973511913314304], [116.34533294629807, 39.973527813499494], [116.34535356732339, 39.971366456845985], [116.34254441869369, 39.97135055787113]]]}}, {"type": "Feature", "id": "LU-001-016-0", "properties": {"id": "LU-001-016-0", "layer": "PUBLIC_SPACE", "source_type": "agent_inferred_from_public_data", "confidence": "low", "geometry_role": "existing_condition", "land_use_code": "1401"}, "geometry": {"type": "Polygon", "coordinates": [[[116.34252370919715, 39.973511913314304], [116.34250299746397, 39.97567326794015], [116.34531232304566, 39.975689169335745], [116.34533294629807, 39.973527813499494], [116.34252370919715, 39.973511913314304]]]}}, {"type": "Feature", "id": "LU-001-020-0", "properties": {"id": "LU-001-020-0", "layer": "PUBLIC_SPACE", "source_type": "agent_inferred_from_public_data", "confidence": "low", "geometry_role": "existing_condition", "land_use_code": "1403"}, "geometry": {"type": "Polygon", "coordinates": [[[116.34244084884169, 39.98215732691364], [116.34242012815915, 39.984318678270085], [116.34522980775955, 39.984334584508076], [116.34525043992309, 39.982173231940926], [116.34244084884169, 39.98215732691364]]]}}, {"type": "Feature", "id": "LU-001-023-0", "properties": {"id": "LU-001-023-0", "layer": "PUBLIC_SPACE", "source_type": "agent_inferred_from_public_data", "confidence": "low", "geometry_role": "existing_condition", "land_use_code": "1401"}, "geometry": {"type": "Polygon", "coordinates": [[[116.34237868007975, 39.98864137853083], [116.34235795268233, 39.99080272743511], [116.34516789789714, 39.990818637305686], [116.34518853674685, 39.98865728719048], [116.34237868007975, 39.98864137853083]]]}}, {"type": "Feature", "id": "LU-001-024-0", "properties": {"id": "LU-001-024-0", "layer": "PUBLIC_SPACE", "source_type": "agent_inferred_from_public_data", "confidence": "low", "geometry_role": "existing_condition", "land_use_code": "1401"}, "geometry": {"type": "Polygon", "coordinates": [[[116.34235795268233, 39.99080272743511], [116.34233722304612, 39.99296407552198], [116.34514725681818, 39.99297998660357], [116.34516789789714, 39.990818637305686], [116.34235795268233, 39.99080272743511]]]}}, {"type": "Feature", "id": "LU-001-025-0", "properties": {"id": "LU-001-025-0", "layer": "PUBLIC_SPACE", "source_type": "agent_inferred_from_public_data", "confidence": "low", "geometry_role": "existing_condition", "land_use_code": "1403"}, "geometry": {"type": "Polygon", "coordinates": [[[116.34233722304612, 39.99296407552198], [116.3423164911708, 39.99512542279141], [116.34512661350969, 39.99514133508411], [116.34514725681818, 39.99297998660357], [116.34233722304612, 39.99296407552198]]]}}, {"type": "Feature", "id": "LU-001-026-0", "properties": {"id": "LU-001-026-0", "layer": "PUBLIC_SPACE", "source_type": "agent_inferred_from_public_data", "confidence": "low", "geometry_role": "existing_condition", "land_use_code": "1401"}, "geometry": {"type": "Polygon", "coordinates": [[[116.3423164911708, 39.99512542279141], [116.34229575705614, 39.99728676924341], [116.3451059679714, 39.99730268274726], [116.34512661350969, 39.99514133508411], [116.3423164911708, 39.99512542279141]]]}}, {"type": "Feature", "id": "LU-001-027-0", "properties": {"id": "LU-001-027-0", "layer": "PUBLIC_SPACE", "source_type": "agent_inferred_from_public_data", "confidence": "low", "geometry_role": "existing_condition", "land_use_code": "1401"}, "geometry": {"type": "Polygon", "coordinates": [[[116.34229575705614, 39.99728676924341], [116.34227502070182, 39.999448114877964], [116.34508532020305, 39.999464029593064], [116.3451059679714, 39.99730268274726], [116.34229575705614, 39.99728676924341]]]}}, {"type": "Feature", "id": "LU-001-028-0", "properties": {"id": "LU-001-028-0", "layer": "PUBLIC_SPACE", "source_type": "agent_inferred_from_public_data", "confidence": "low", "geometry_role": "existing_condition", "land_use_code": "1403"}, "geometry": {"type": "Polygon", "coordinates": [[[116.34227502070182, 39.999448114877964], [116.34225428210762, 40.00160945969506], [116.34506467020437, 40.001625375621465], [116.34508532020305, 39.999464029593064], [116.34227502070182, 39.999448114877964]]]}}, {"type": "Feature", "id": "LU-001-029-0", "properties": {"id": "LU-001-029-0", "layer": "PUBLIC_SPACE", "source_type": "agent_inferred_from_public_data", "confidence": "low", "geometry_role": "existing_condition", "land_use_code": "1403"}, "geometry": {"type": "Polygon", "coordinates": [[[116.34225428210762, 40.00160945969506], [116.34223354127325, 40.003770803694685], [116.34504401797506, 40.00378672083249], [116.34506467020437, 40.001625375621465], [116.34225428210762, 40.00160945969506]]]}}, {"type": "Feature", "id": "LU-001-030-0", "properties": {"id": "LU-001-030-0", "layer": "PUBLIC_SPACE", "source_type": "agent_inferred_from_public_data", "confidence": "low", "geometry_role": "existing_condition", "land_use_code": "1401"}, "geometry": {"type": "Polygon", "coordinates": [[[116.34223354127325, 40.003770803694685], [116.34221279819842, 40.005932146876816], [116.34502336351488, 40.00594806522609], [116.34504401797506, 40.00378672083249], [116.34223354127325, 40.003770803694685]]]}}, {"type": "Feature", "id": "LU-001-031-0", "properties": {"id": "LU-001-031-0", "layer": "PUBLIC_SPACE", "source_type": "agent_inferred_from_public_data", "confidence": "low", "geometry_role": "existing_condition", "land_use_code": "1403"}, "geometry": {"type": "Polygon", "coordinates": [[[116.34221279819842, 40.005932146876816], [116.34219205288288, 40.00809348924147], [116.34500270682356, 40.008109408802284], [116.34502336351488, 40.00594806522609], [116.34221279819842, 40.005932146876816]]]}}, {"type": "Feature", "id": "LU-001-036-0", "properties": {"id": "LU-001-036-0", "layer": "PUBLIC_SPACE", "source_type": "agent_inferred_from_public_data", "confidence": "low", "geometry_role": "existing_condition", "land_use_code": "1403"}, "geometry": {"type": "Polygon", "coordinates": [[[116.34489938989046, 40.018916114421536], [116.34492005774152, 40.01675477493261], [116.34222381349007, 40.01673950200152], [116.34232928376083, 40.01890155675354], [116.34489938989046, 40.018916114421536]]]}}, {"type": "Feature", "id": "LU-002-009-0", "properties": {"id": "LU-002-009-0", "layer": "PUBLIC_SPACE", "source_type": "agent_inferred_from_public_data", "confidence": "low", "geometry_role": "existing_condition", "land_use_code": "1403"}, "geometry": {"type": "Polygon", "coordinates": [[[116.34547724672089, 39.958398299763495], [116.34545663905263, 39.96055966132022], [116.34826534769493, 39.96057548620061], [116.34828586694898, 39.95841412343918], [116.34547724672089, 39.958398299763495]]]}}, {"type": "Feature", "id": "LU-002-011-0", "properties": {"id": "LU-002-011-0", "layer": "PUBLIC_SPACE", "source_type": "agent_inferred_from_public_data", "confidence": "low", "geometry_role": "existing_condition", "land_use_code": "1401"}, "geometry": {"type": "Polygon", "coordinates": [[[116.34543602915885, 39.96272102205977], [116.34541541703929, 39.964882381982136], [116.34822430253865, 39.96489820927215], [116.3482448262249, 39.962736848144935], [116.34543602915885, 39.96272102205977]]]}}, {"type": "Feature", "id": "LU-002-020-0", "properties": {"id": "LU-002-020-0", "layer": "PUBLIC_SPACE", "source_type": "agent_inferred_from_public_data", "confidence": "low", "geometry_role": "existing_condition", "land_use_code": "1401"}, "geometry": {"type": "Polygon", "coordinates": [[[116.34525043992309, 39.982173231940926], [116.34522980775955, 39.984334584508076], [116.34803948958843, 39.984350422645164], [116.34806003323267, 39.982189068872486], [116.34525043992309, 39.982173231940926]]]}}, {"type": "Feature", "id": "LU-002-022-0", "properties": {"id": "LU-002-022-0", "layer": "PUBLIC_SPACE", "source_type": "agent_inferred_from_public_data", "confidence": "low", "geometry_role": "existing_condition", "land_use_code": "1403"}, "geometry": {"type": "Polygon", "coordinates": [[[116.34520917336756, 39.98649593625793], [116.34518853674685, 39.98865728719048], [116.34799839564295, 39.98867312773884], [116.34801894372526, 39.986511775600626], [116.34520917336756, 39.98649593625793]]]}}, {"type": "Feature", "id": "LU-002-023-0", "properties": {"id": "LU-002-023-0", "layer": "PUBLIC_SPACE", "source_type": "agent_inferred_from_public_data", "confidence": "low", "geometry_role": "existing_condition", "land_use_code": "1401"}, "geometry": {"type": "Polygon", "coordinates": [[[116.34518853674685, 39.98865728719048], [116.34516789789714, 39.990818637305686], [116.3479778453412, 39.990834479059814], [116.34799839564295, 39.98867312773884], [116.34518853674685, 39.98865728719048]]]}}, {"type": "Feature", "id": "LU-002-024-0", "properties": {"id": "LU-002-024-0", "layer": "PUBLIC_SPACE", "source_type": "agent_inferred_from_public_data", "confidence": "low", "geometry_role": "existing_condition", "land_use_code": "1403"}, "geometry": {"type": "Polygon", "coordinates": [[[116.34516789789714, 39.990818637305686], [116.34514725681818, 39.99297998660357], [116.34795729281979, 39.992995829563526], [116.3479778453412, 39.990834479059814], [116.34516789789714, 39.990818637305686]]]}}, {"type": "Feature", "id": "LU-002-027-0", "properties": {"id": "LU-002-027-0", "layer": "PUBLIC_SPACE", "source_type": "agent_inferred_from_public_data", "confidence": "low", "geometry_role": "existing_condition", "land_use_code": "1401"}, "geometry": {"type": "Polygon", "coordinates": [[[116.3451059679714, 39.99730268274726], [116.34508532020305, 39.999464029593064], [116.34789562193461, 39.99947987617096], [116.34791618111673, 39.99731852811911], [116.3451059679714, 39.99730268274726]]]}}, {"type": "Feature", "id": "LU-002-034-0", "properties": {"id": "LU-002-034-0", "layer": "PUBLIC_SPACE", "source_type": "agent_inferred_from_public_data", "confidence": "low", "geometry_role": "existing_condition", "land_use_code": "1403"}, "geometry": {"type": "Polygon", "coordinates": [[[116.34496138674646, 40.01243209350235], [116.3449407233601, 40.014593434626214], [116.34775164546315, 40.01460928964859], [116.34777222019628, 40.01244794731815], [116.34496138674646, 40.01243209350235]]]}}, {"type": "Feature", "id": "LU-002-035-0", "properties": {"id": "LU-002-035-0", "layer": "PUBLIC_SPACE", "source_type": "agent_inferred_from_public_data", "confidence": "low", "geometry_role": "existing_condition", "land_use_code": "1401"}, "geometry": {"type": "Polygon", "coordinates": [[[116.3449407233601, 40.014593434626214], [116.34492005774152, 40.01675477493261], [116.34773106850737, 40.01677063116164], [116.34775164546315, 40.01460928964859], [116.3449407233601, 40.014593434626214]]]}}, {"type": "Feature", "id": "LU-002-039-0", "properties": {"id": "LU-002-039-0", "layer": "PUBLIC_SPACE", "source_type": "agent_inferred_from_public_data", "confidence": "low", "geometry_role": "existing_condition", "land_use_code": "1403"}, "geometry": {"type": "Polygon", "coordinates": [[[116.3448580474898, 40.023238790946884], [116.34483737293966, 40.02540012798332], [116.34764873845243, 40.02541598903972], [116.34766932430148, 40.02325465079633], [116.3448580474898, 40.023238790946884]]]}}, {"type": "Feature", "id": "LU-002-040-0", "properties": {"id": "LU-002-040-0", "layer": "PUBLIC_SPACE", "source_type": "agent_inferred_from_public_data", "confidence": "low", "geometry_role": "existing_condition", "land_use_code": "1403"}, "geometry": {"type": "Polygon", "coordinates": [[[116.34764873845243, 40.02541598903972], [116.34483737293966, 40.02540012798332], [116.34482685019101, 40.02650009611694], [116.34763841130275, 40.026500163264494], [116.34764873845243, 40.02541598903972]]]}}, {"type": "Feature", "id": "LU-003-001-0", "properties": {"id": "LU-003-001-0", "layer": "PUBLIC_SPACE", "source_type": "agent_inferred_from_public_data", "confidence": "low", "geometry_role": "existing_condition", "land_use_code": "1403"}, "geometry": {"type": "Polygon", "coordinates": [[[116.34844994123924, 39.94112319193354], [116.3484294397032, 39.94328456123134], [116.35123744351293, 39.94330030847354], [116.35125785671082, 39.94113893797679], [116.34844994123924, 39.94112319193354]]]}}, {"type": "Feature", "id": "LU-003-003-0", "properties": {"id": "LU-003-003-0", "layer": "PUBLIC_SPACE", "source_type": "agent_inferred_from_public_data", "confidence": "low", "geometry_role": "existing_condition", "land_use_code": "1403"}, "geometry": {"type": "Polygon", "coordinates": [[[116.34840893595333, 39.94544592971216], [116.3483884299894, 39.94760729737593], [116.35119661050398, 39.94762304701621], [116.35121702811072, 39.94546167815334], [116.34840893595333, 39.94544592971216]]]}}, {"type": "Feature", "id": "LU-003-004-0", "properties": {"id": "LU-003-004-0", "layer": "PUBLIC_SPACE", "source_type": "agent_inferred_from_public_data", "confidence": "low", "geometry_role": "existing_condition", "land_use_code": "1401"}, "geometry": {"type": "Polygon", "coordinates": [[[116.3483884299894, 39.94760729737593], [116.34836792181108, 39.9497686642227], [116.35117619069243, 39.94978441506211], [116.35119661050398, 39.94762304701621], [116.3483884299894, 39.94760729737593]]]}}, {"type": "Feature", "id": "LU-003-020-0", "properties": {"id": "LU-003-020-0", "layer": "PUBLIC_SPACE", "source_type": "agent_inferred_from_public_data", "confidence": "low", "geometry_role": "existing_condition", "land_use_code": "1403"}, "geometry": {"type": "Polygon", "coordinates": [[[116.34806003323267, 39.982189068872486], [116.34803948958843, 39.984350422645164], [116.35084917363616, 39.984366192681186], [116.35086962876089, 39.98220483770815], [116.34806003323267, 39.982189068872486]]]}}, {"type": "Feature", "id": "LU-003-022-0", "properties": {"id": "LU-003-022-0", "layer": "PUBLIC_SPACE", "source_type": "agent_inferred_from_public_data", "confidence": "low", "geometry_role": "existing_condition", "land_use_code": "1403"}, "geometry": {"type": "Polygon", "coordinates": [[[116.34801894372526, 39.986511775600626], [116.34799839564295, 39.98867312773884], [116.35080825675847, 39.988688900175795], [116.35082871630215, 39.98652754683707], [116.34801894372526, 39.986511775600626]]]}}, {"type": "Feature", "id": "LU-003-029-0", "properties": {"id": "LU-003-029-0", "layer": "PUBLIC_SPACE", "source_type": "agent_inferred_from_public_data", "confidence": "low", "geometry_role": "existing_condition", "land_use_code": "1403"}, "geometry": {"type": "Polygon", "coordinates": [[[116.34787506053169, 40.00164122340549], [116.34785449690776, 40.00380256982272], [116.35066497806176, 40.00381835066522], [116.35068545308006, 40.00165700304697], [116.34787506053169, 40.00164122340549]]]}}, {"type": "Feature", "id": "LU-003-032-0", "properties": {"id": "LU-003-032-0", "layer": "PUBLIC_SPACE", "source_type": "agent_inferred_from_public_data", "confidence": "low", "geometry_role": "existing_condition", "land_use_code": "1403"}, "geometry": {"type": "Polygon", "coordinates": [[[116.34781336299571, 40.00812526020514], [116.34779279270704, 40.01028660417034], [116.35060353973533, 40.010302388616346], [116.35062402138965, 40.00814104344991], [116.34781336299571, 40.00812526020514]]]}}, {"type": "Feature", "id": "LU-003-033-0", "properties": {"id": "LU-003-033-0", "layer": "PUBLIC_SPACE", "source_type": "agent_inferred_from_public_data", "confidence": "low", "geometry_role": "existing_condition", "land_use_code": "1403"}, "geometry": {"type": "Polygon", "coordinates": [[[116.34779279270704, 40.01028660417034], [116.34777222019628, 40.01244794731815], [116.35058305586848, 40.01246373296547], [116.35060353973533, 40.010302388616346], [116.34779279270704, 40.01028660417034]]]}}, {"type": "Feature", "id": "LU-004-003-0", "properties": {"id": "LU-004-003-0", "layer": "PUBLIC_SPACE", "source_type": "agent_inferred_from_public_data", "confidence": "low", "geometry_role": "existing_condition", "land_use_code": "1401"}, "geometry": {"type": "Polygon", "coordinates": [[[116.35121702811072, 39.94546167815334], [116.35119661050398, 39.94762304701621], [116.35400479322338, 39.94763872864332], [116.35402512247265, 39.94547735858655], [116.35121702811072, 39.94546167815334]]]}}, {"type": "Feature", "id": "LU-004-004-0", "properties": {"id": "LU-004-004-0", "layer": "PUBLIC_SPACE", "source_type": "agent_inferred_from_public_data", "confidence": "low", "geometry_role": "existing_condition", "land_use_code": "1401"}, "geometry": {"type": "Polygon", "coordinates": [[[116.35119661050398, 39.94762304701621], [116.35117619069243, 39.94978441506211], [116.35398446177888, 39.949800097883205], [116.35400479322338, 39.94763872864332], [116.35119661050398, 39.94762304701621]]]}}, {"type": "Feature", "id": "LU-004-007-0", "properties": {"id": "LU-004-007-0", "layer": "PUBLIC_SPACE", "source_type": "agent_inferred_from_public_data", "confidence": "low", "geometry_role": "existing_condition", "land_use_code": "1403"}, "geometry": {"type": "Polygon", "coordinates": [[[116.35113534445382, 39.95410714870302], [116.35111491802624, 39.95626851429799], [116.35392345427097, 39.956284200701454], [116.35394379230291, 39.95412283391228], [116.35113534445382, 39.95410714870302]]]}}, {"type": "Feature", "id": "LU-004-010-0", "properties": {"id": "LU-004-010-0", "layer": "PUBLIC_SPACE", "source_type": "agent_inferred_from_public_data", "confidence": "low", "geometry_role": "existing_condition", "land_use_code": "1403"}, "geometry": {"type": "Polygon", "coordinates": [[[116.35107405855318, 39.96059124303691], [116.35105362550718, 39.96275260618085], [116.35386242699613, 39.96276829616733], [116.35388277161783, 39.960606931828984], [116.35107405855318, 39.96059124303691]]]}}, {"type": "Feature", "id": "LU-004-016-0", "properties": {"id": "LU-004-016-0", "layer": "PUBLIC_SPACE", "source_type": "agent_inferred_from_public_data", "confidence": "low", "geometry_role": "existing_condition", "land_use_code": "1403"}, "geometry": {"type": "Polygon", "coordinates": [[[116.35095142717171, 39.9735594096447], [116.35093098088167, 39.97572076788624], [116.35374031311684, 39.97573646504082], [116.35376067092531, 39.97357510560442], [116.35095142717171, 39.9735594096447]]]}}, {"type": "Feature", "id": "LU-004-028-0", "properties": {"id": "LU-004-028-0", "layer": "PUBLIC_SPACE", "source_type": "agent_inferred_from_public_data", "confidence": "low", "geometry_role": "existing_condition", "land_use_code": "1401"}, "geometry": {"type": "Polygon", "coordinates": [[[116.35070592588693, 39.999495654611486], [116.35068545308006, 40.00165700304697], [116.35349584783992, 40.00167271454574], [116.35351623205044, 39.99951136491451], [116.35070592588693, 39.999495654611486]]]}}, {"type": "Feature", "id": "LU-004-033-0", "properties": {"id": "LU-004-033-0", "layer": "PUBLIC_SPACE", "source_type": "agent_inferred_from_public_data", "confidence": "low", "geometry_role": "existing_condition", "land_use_code": "1403"}, "geometry": {"type": "Polygon", "coordinates": [[[116.35060353973533, 40.010302388616346], [116.35058305586848, 40.01246373296547], [116.35339389375349, 40.01247945044416], [116.35341428897617, 40.01031810489889], [116.35060353973533, 40.010302388616346]]]}}, {"type": "Feature", "id": "LU-004-038-0", "properties": {"id": "LU-004-038-0", "layer": "PUBLIC_SPACE", "source_type": "agent_inferred_from_public_data", "confidence": "low", "geometry_role": "existing_condition", "land_use_code": "1403"}, "geometry": {"type": "Polygon", "coordinates": [[[116.3505010982704, 40.02110910218889], [116.35048060333688, 40.02327044245138], [116.3532918845864, 40.023286165911834], [116.35331229082786, 40.02112482445284], [116.3505010982704, 40.02110910218889]]]}}, {"type": "Feature", "id": "LU-005-000-0", "properties": {"id": "LU-005-000-0", "layer": "PUBLIC_SPACE", "source_type": "agent_inferred_from_public_data", "confidence": "low", "geometry_role": "existing_condition", "land_use_code": "1401"}, "geometry": {"type": "Polygon", "coordinates": [[[116.35406577438643, 39.94115461602242], [116.35530000503903, 39.94116148584863], [116.3553, 39.939], [116.35408603286697, 39.93900007008323], [116.35406577438643, 39.94115461602242]]]}}, {"type": "Feature", "id": "LU-005-002-0", "properties": {"id": "LU-005-002-0", "layer": "PUBLIC_SPACE", "source_type": "agent_inferred_from_public_data", "confidence": "low", "geometry_role": "existing_condition", "land_use_code": "1403"}, "geometry": {"type": "Polygon", "coordinates": [[[116.35404544952691, 39.943315987712914], [116.35402512247265, 39.94547735858655], [116.3553000123762, 39.94548445513634], [116.35530000916445, 39.94332297089407], [116.35404544952691, 39.943315987712914]]]}}, {"type": "Feature", "id": "LU-005-005-0", "properties": {"id": "LU-005-005-0", "layer": "PUBLIC_SPACE", "source_type": "agent_inferred_from_public_data", "confidence": "low", "geometry_role": "existing_condition", "land_use_code": "1403"}, "geometry": {"type": "Polygon", "coordinates": [[[116.35398446177888, 39.949800097883205], [116.35396412813878, 39.95196146630619], [116.35530001652897, 39.95196890304384], [116.35530001605852, 39.94980742121124], [116.35398446177888, 39.949800097883205]]]}}, {"type": "Feature", "id": "LU-005-007-0", "properties": {"id": "LU-005-007-0", "layer": "PUBLIC_SPACE", "source_type": "agent_inferred_from_public_data", "confidence": "low", "geometry_role": "existing_condition", "land_use_code": "1403"}, "geometry": {"type": "Polygon", "coordinates": [[[116.35394379230291, 39.95412283391228], [116.35392345427097, 39.956284200701454], [116.35530001472809, 39.956291864299345], [116.3553000160855, 39.954130384073224], [116.35394379230291, 39.95412283391228]]]}}, {"type": "Feature", "id": "LU-005-013-0", "properties": {"id": "LU-005-013-0", "layer": "PUBLIC_SPACE", "source_type": "agent_inferred_from_public_data", "confidence": "low", "geometry_role": "existing_condition", "land_use_code": "1403"}, "geometry": {"type": "Polygon", "coordinates": [[[116.353821731161, 39.96709102239314], [116.35380137994713, 39.96925238428057], [116.35495940574963, 39.969258834070835], [116.35513219558376, 39.9670983200244], [116.353821731161, 39.96709102239314]]]}}, {"type": "Feature", "id": "LU-005-015-0", "properties": {"id": "LU-005-015-0", "layer": "PUBLIC_SPACE", "source_type": "agent_inferred_from_public_data", "confidence": "low", "geometry_role": "existing_condition", "land_use_code": "1403"}, "geometry": {"type": "Polygon", "coordinates": [[[116.35378102653532, 39.971413745351], [116.35376067092531, 39.97357510560442], [116.35461379070735, 39.97357985872355], [116.35478660412477, 39.97141934697058], [116.35378102653532, 39.971413745351]]]}}, {"type": "Feature", "id": "LU-005-027-0", "properties": {"id": "LU-005-027-0", "layer": "PUBLIC_SPACE", "source_type": "agent_inferred_from_public_data", "confidence": "low", "geometry_role": "existing_condition", "land_use_code": "1401"}, "geometry": {"type": "Polygon", "coordinates": [[[116.35353661405934, 39.9973500144661], [116.35351623205044, 39.99951136491451], [116.35382108239953, 39.9995130650057], [116.35370263983259, 39.99735094041775], [116.35353661405934, 39.9973500144661]]]}}]}
