{"type": "FeatureCollection", "features": [{"type": "Feature", "id": "R-H0", "properties": {"id": "R-H0", "layer": "ROAD_CENTERLINE", "source_type": "agent_generated_design", "confidence": "low", "geometry_role": "design_proposal", "road_class": "arterial"}, "geometry": {"type": "Polygon", "coordinates": [[[116.35490010149094, 39.969874070351956], [116.33984246769062, 39.96987405385384], [116.33983546345583, 39.97012608662829], [116.33983894967221, 39.970126218634306], [116.35489003080801, 39.970126236452316], [116.35491016889497, 39.96987445024472], [116.35490010149094, 39.969874070351956]]]}}, {"type": "Feature", "id": "R-H1", "properties": {"id": "R-H1", "layer": "ROAD_CENTERLINE", "source_type": "agent_generated_design", "confidence": "low", "geometry_role": "design_proposal", "road_class": "arterial"}, "geometry": {"type": "Polygon", "coordinates": [[[116.353854662611, 40.00012603722391], [116.35384086262465, 39.99987413384116], [116.34131280194396, 39.99987414233188], [116.34130467402308, 39.99987444898793], [116.3413209269512, 40.000126306521544], [116.35384778140232, 40.000126297588466], [116.353854662611, 40.00012603722391]]]}}, {"type": "Feature", "id": "R-H2", "properties": {"id": "R-H2", "layer": "ROAD_CENTERLINE", "source_type": "agent_generated_design", "confidence": "low", "geometry_role": "design_proposal", "road_class": "arterial"}, "geometry": {"type": "Polygon", "coordinates": [[[116.35529999741543, 39.94487404356493], [116.3405369203751, 39.944874097071484], [116.34052992250005, 39.94512613101547], [116.34053340682588, 39.945126262977475], [116.35530001190706, 39.94512621011762], [116.35530001156178, 39.94487404409889], [116.35529999741543, 39.94487404356493]]]}}, {"type": "Feature", "id": "R-V0", "properties": {"id": "R-V0", "layer": "ROAD_CENTERLINE", "source_type": "agent_generated_design", "confidence": "low", "geometry_role": "design_proposal", "road_class": "secondary"}, "geometry": {"type": "Polygon", "coordinates": [[[116.3451640166753, 40.026500102955836], [116.34516381192475, 39.9390001951354], [116.34483622376564, 39.939000186658596], [116.34483622344165, 39.939000191735694], [116.34483601001793, 40.02650009644646], [116.34516401636768, 40.02650010776933], [116.3451640166753, 40.026500102955836]]]}}, {"type": "Feature", "id": "R-V1", "properties": {"id": "R-V1", "layer": "ROAD_CENTERLINE", "source_type": "agent_generated_design", "confidence": "low", "geometry_role": "design_proposal", "road_class": "secondary"}, "geometry": {"type": "Polygon", "coordinates": [[[116.34983600996354, 40.02650016824841], [116.35016401666898, 40.02650016541763], [116.35016381188602, 39.939000211627715], [116.35016381175878, 39.93900020963436], [116.34983622321074, 39.93900021528566], [116.34983600981934, 40.02650016599155], [116.34983600996354, 40.02650016824841]]]}}, {"type": "Feature", "id": "R-V2", "properties": {"id": "R-V2", "layer": "ROAD_CENTERLINE", "source_type": "agent_generated_design", "confidence": "low", "geometry_role": "design_proposal", "road_class": "secondary"}, "geometry": {"type": "Polygon", "coordinates": [[[116.35283601011695, 40.02650010776841], [116.3531640166655, 40.02650009644547], [116.35316381186132, 39.93900012106309], [116.35316381146329, 39.93900011482748], [116.35283622307192, 39.939000128955634], [116.35283600970172, 40.02650010126938], [116.35283601011695, 40.02650010776841]]]}}]}
