{"type": "FeatureCollection", "features": [{"type": "Feature", "id": "PROV-SITE-001", "properties": {"id": "PROV-SITE-001", "layer": "SITE_BOUNDARY", "source_type": "agent_inferred_from_public_data", "confidence": "medium", "geometry_role": "provisional_constraint", "official_boundary": false, "area_sqm_declared": 11412825.4}, "geometry": {"type": "Polygon", "coordinates": [[[116.34070000000001, 39.93899999999999], [116.3553, 39.939], [116.3553, 39.965], [116.3533, 39.989999999999995], [116.3553, 40.0265], [116.34270000000001, 40.0265], [116.34169999999999, 40.00600000000001], [116.3397, 39.975], [116.34070000000001, 39.93899999999999]]]}}]}
